,name,address,city,postcode,phone,name_address,latitude,longitude,food_types,geometry,social,area_code,area_name,hex_id_10,hex_id_20,hex_id_30,hex_id_40
0,The George Hotel,"Swan Square, Burslem",Stoke-on-Trent ,ST6 2AE,01782 577544,"The George Hotel, Swan Square, Burslem, Stoke-on-Trent , ST6 2AE",53.0451595,-2.1962693,Chicken 2;,POINT (-2.1962693 53.0451595),peckwater,E06000021,Stoke-on-Trent,E06000021_10_22,E06000021_20_18,E06000021_30_7,E06000021_40_7
18,Deanies Fish and Chips,135 Irene Avenue,Stoke-On-Trent,ST6 7HE,01782 499050,"Deanies Fish and Chips, 135 Irene Avenue, Stoke-On-Trent, ST6 7HE",53.0642897,-2.1936799,Chicken 1;,POINT (-2.1936799 53.0642897),peckwater,E06000021,Stoke-on-Trent,E06000021_10_45,E06000021_20_15,E06000021_30_6,E06000021_40_6
151,Urban Spice ,38 - 42 Trinity Street,Hanley,ST1 5LJ,7562731926,"Urban Spice , 38 - 42 Trinity Street, Hanley, ST1 5LJ",53.02583929999999,-2.1783068,Mexican 1;,POINT (-2.1783068 53.02583929999999),peckwater,E06000021,Stoke-on-Trent,E06000021_10_13,E06000021_20_2,E06000021_30_2,E06000021_40_2
1,Empire Foods Ltd,20 Balfour Road,Southall,UB2 5BD,7470049328,"Empire Foods Ltd, 20 Balfour Road, Southall, UB2 5BD",51.5020955,-0.3888077,Chicken 2;,POINT (-0.3888077 51.5020955),peckwater,E09000009,Ealing,E09000009_10_110,E09000009_20_50,E09000009_30_40,E09000009_40_24
5,Chick Alley,5 Western Road,Southall,UB2 5HA,,"Chick Alley, 5 Western Road, Southall, UB2 5HA",51.5007909,-0.3835163,Chicken 1;,POINT (-0.3835163 51.5007909),peckwater,E09000009,Ealing,E09000009_10_93,E09000009_20_31,E09000009_30_27,E09000009_40_24
11,Two Buns,"71 New Broadway, Ealing Broadway",London,W5 5AL,,"Two Buns, 71 New Broadway, Ealing Broadway, London, W5 5AL",51.5125311,-0.308049,Chicken 1;Chicken 2;,POINT (-0.308049 51.5125311),peckwater,E09000009,Ealing,E09000009_10_16,E09000009_20_15,E09000009_30_12,E09000009_40_2
2,Aromas Tandoori,172 Forest Lane,Forest Gate,E7 9BB,07460 462560,"Aromas Tandoori, 172 Forest Lane, Forest Gate, E7 9BB",51.549828,0.0243558,Mexican 1;,POINT (0.0243558 51.549828),peckwater,E09000025,Newham,E09000025_10_57,E09000025_20_32,E09000025_30_28,E09000025_40_10
6,Franjo's,"125 Barking Rd, Barking",London,E16 4HQ,,"Franjo's, 125 Barking Rd, Barking, London, E16 4HQ",51.5175405,0.0116765,Chicken 1;,POINT (0.0116765 51.5175405),peckwater,E09000025,Newham,E09000025_10_32,E09000025_20_12,E09000025_30_1,E09000025_40_1
51,Just Another Grill,"78 Portway, Stratford",London,E15 3QJ,020 85192437,"Just Another Grill, 78 Portway, Stratford, London, E15 3QJ",51.5370351,0.0126165,Chicken 2;,POINT (0.0126165 51.5370351),peckwater,E09000025,Newham,E09000025_10_126,E09000025_20_68,E09000025_30_58,E09000025_40_2
72,7mama’s,2 Rancliffe Road,London,E6 3HN,020 8470 7392,"7mama’s, 2 Rancliffe Road, London, E6 3HN",51.5277061,0.05598260000000001,Chicken 1;,POINT (0.0559826 51.5277061),peckwater,E09000025,Newham,E09000025_10_83,E09000025_20_8,E09000025_30_8,E09000025_40_8
39,The Abbey Tap,"12-14 Broadway, Stratford",London,E15 4QS,,"The Abbey Tap, 12-14 Broadway, Stratford, London, E15 4QS",51.5402498,0.0002012,Stonegate 2;,POINT (0.0002012 51.5402498),peckwater,E09000025,Newham,E09000025_10_89,E09000025_20_16,E09000025_30_7,E09000025_40_7
3,Clove spice ,258 High Rd,Harrow,HA3 7BB,7846948505,"Clove spice , 258 High Rd, Harrow, HA3 7BB",51.60323220000001,-0.3385205,Mexican 1;,POINT (-0.3385205 51.60323220000001),peckwater,E09000015,Harrow,E09000015_10_42,E09000015_20_30,E09000015_30_13,E09000015_40_17
69,Standard Indian Takeaway,302 Eastcote Lane,Harrow, HA2 9AH,020 8422 3540,"Standard Indian Takeaway, 302 Eastcote Lane, Harrow,  HA2 9AH",51.5623544,-0.3714504,Chicken 1;Mexican 1;,POINT (-0.3714504 51.5623544),peckwater,E09000015,Harrow,E09000015_10_62,E09000015_20_35,E09000015_30_24,E09000015_40_14
4,Pronta Pizza ,Unit 4 Dewley shopping centre,Cramlington,NE23 6DT,01670 714455,"Pronta Pizza , Unit 4 Dewley shopping centre, Cramlington, NE23 6DT",55.0807371,-1.5836146,Chicken 1;,POINT (-1.5836146 55.0807371),peckwater,E06000057,Northumberland,E06000057_10_7,E06000057_20_5,E06000057_30_3,E06000057_40_3
52,Blagdon Arms Northumberland - STG,Village Square,Northumberland,NE23 1DN,,"Blagdon Arms Northumberland - STG, Village Square, Northumberland, NE23 1DN",55.0865907,-1.5836759,Stonegate 2;,POINT (-1.5836759 55.0865907),peckwater,E06000057,Northumberland,E06000057_10_18,E06000057_20_5,E06000057_30_3,E06000057_40_3
104,Hungry Shack (Blyth) ,3A Coomassie Road,Blyth,NE24 2LA,01670 364444,"Hungry Shack (Blyth) , 3A Coomassie Road, Blyth, NE24 2LA",55.1263276,-1.5110917,Chicken 2;,POINT (-1.5110917 55.1263276),peckwater,E06000057,Northumberland,E06000057_10_1,E06000057_20_1,E06000057_30_1,E06000057_40_1
126,Sevens ,18 Grasmere Way,Blyth ,NE24 4RR,01670 365894,"Sevens , 18 Grasmere Way, Blyth , NE24 4RR",55.13110390000001,-1.5426142,Chicken 1;,POINT (-1.5426142 55.13110390000001),peckwater,E06000057,Northumberland,E06000057_10_11,E06000057_20_9,E06000057_30_0,E06000057_40_0
5,Pineham Fish and Chips,Dragonfly Way 3,Upton,NN4 9EH,+44 7983 028271,"Pineham Fish and Chips, Dragonfly Way 3, Upton, NN4 9EH",52.2218059,-0.9506110999999998,Chicken 1;,POINT (-0.9506110999999998 52.2218059),peckwater,E06000062,West Northamptonshire [note 4],E06000062_10_32,E06000062_20_22,E06000062_30_17,E06000062_40_7
42,Bosko's,112 Wellingborough Road,Northampton,NN14DR,441604345953,"Bosko's, 112 Wellingborough Road, Northampton, NN14DR",52.2409523,-0.8836235,Chicken 1;,POINT (-0.8836235 52.2409523),peckwater,E06000062,West Northamptonshire [note 4],E06000062_10_10,E06000062_20_10,E06000062_30_1,E06000062_40_1
6,Hot Rod Burgers ,69 Surbiton Road,Kingston upon Thames,KT1 2HG,7412944558,"Hot Rod Burgers , 69 Surbiton Road, Kingston upon Thames, KT1 2HG",51.40115549999999,-0.303592,Mexican 1;,POINT (-0.303592 51.40115549999999),peckwater,E09000021,Kingston upon Thames,E09000021_10_23,E09000021_20_1,E09000021_30_1,E09000021_40_1
41,Tasty Bite,"64 surbiton road, Kingston",Surrey,KT1 2HT,020 84511444,"Tasty Bite, 64 surbiton road, Kingston, Surrey, KT1 2HT",51.4012219,-0.3041278,Chicken 1;Mexican 1;,POINT (-0.3041278 51.4012219),peckwater,E09000021,Kingston upon Thames,E09000021_10_1,E09000021_20_1,E09000021_30_1,E09000021_40_1
135,Waffle Plus,"63 Richmond Road, England",Kingston Upon Thames,KT2 5BP ,7551882887,"Waffle Plus, 63 Richmond Road, England, Kingston Upon Thames, KT2 5BP ",51.4151321,-0.3012974,Chicken 2;,POINT (-0.3012974 51.4151321),peckwater,E09000021,Kingston upon Thames,E09000021_10_14,E09000021_20_3,E09000021_30_3,E09000021_40_3
7,Night Garden Bars,14-16 SPRING STREET,PORTSMOUTH,PO14AA,7956572604,"Night Garden Bars, 14-16 SPRING STREET, PORTSMOUTH, PO14AA",50.8004158,-1.0917852,Chicken 1;Mexican 1;,POINT (-1.0917852 50.8004158),peckwater,E06000044,Portsmouth,E06000044_10_28,E06000044_20_5,E06000044_30_3,E06000044_40_3
19,The Dockyard,13-19 Guildhall Walk,Portsmouth,PO1 2RY,02392 863341,"The Dockyard, 13-19 Guildhall Walk, Portsmouth, PO1 2RY",50.7963664,-1.0925076,Chicken 1;Stonegate 2;,POINT (-1.0925076 50.7963664),peckwater,E06000044,Portsmouth,E06000044_10_5,E06000044_20_1,E06000044_30_1,E06000044_40_1
8,Gandhi Indian Restaurant,13 Boyn Hill Ave,Maidenhead,SL6 4ET,7415017056,"Gandhi Indian Restaurant, 13 Boyn Hill Ave, Maidenhead, SL6 4ET",51.52032209999999,-0.7328800999999999,Chicken 1;,POINT (-0.7328800999999999 51.52032209999999),peckwater,E06000040,Windsor and Maidenhead,E06000040_10_23,E06000040_20_16,E06000040_30_9,E06000040_40_7
9,Fryer Tucks,64 Zealand Road,Canterbury,CT1 3QZ,7877988116,"Fryer Tucks, 64 Zealand Road, Canterbury, CT1 3QZ",51.270884,1.076391,Chicken 1;,POINT (1.076391 51.270884),peckwater,E07000106,Canterbury,E07000106_10_19,E07000106_20_4,E07000106_30_4,E07000106_40_4
10,The Golden Fry Normanby,31 High Street,Normanby,TS6 0NH,7863361317,"The Golden Fry Normanby, 31 High Street, Normanby, TS6 0NH",54.55725899999999,-1.1562498,Chicken 1;,POINT (-1.1562498 54.55725899999999),peckwater,E06000003,Redcar and Cleveland,E06000003_10_9,E06000003_20_2,E06000003_30_2,E06000003_40_1
11,Fry Guys ,2a High Newham Road,Hardwick,TS19 8RQ,7863361317,"Fry Guys , 2a High Newham Road, Hardwick, TS19 8RQ",54.58323859999999,-1.3523719,Chicken 1;,POINT (-1.3523719 54.58323859999999),peckwater,E06000004,Stockton-on-Tees,E06000004_10_7,E06000004_20_2,E06000004_30_2,E06000004_40_2
12,The Fat Pizza - Romford,"18 Elm Parade, Elm Park Ave, ",Hornchurch,RM12 4SA,+44 1268 975015,"The Fat Pizza - Romford, 18 Elm Parade, Elm Park Ave, , Hornchurch, RM12 4SA",51.5512913,0.1994759,Chicken 2;,POINT (0.1994759 51.5512913),peckwater,E09000016,Havering,E09000016_10_8,E09000016_20_7,E09000016_30_5,E09000016_40_4
91,Pizza Place,46 Station Lane,Hornchurch,Rm12 6nb ,7516397246,"Pizza Place, 46 Station Lane, Hornchurch, Rm12 6nb ",51.5605851,0.2204108,Chicken 1;,POINT (0.2204108 51.5605851),peckwater,E09000016,Havering,E09000016_10_32,E09000016_20_8,E09000016_30_6,E09000016_40_5
13,The Fat Pizza - Burnley,11 Hall Street,Burnley,BB11 1QJ,+44 1268 975015,"The Fat Pizza - Burnley, 11 Hall Street, Burnley, BB11 1QJ",53.7896258,-2.2408654,Chicken 1;Mexican 1;,POINT (-2.2408654 53.7896258),peckwater,E07000117,Burnley,E07000117_10_5,E07000117_20_4,E07000117_30_0,E07000117_40_0
14,The Fat Pizza - Kettering,25 Dalkeith Place,Kettering,NN16 0BS,447718588960,"The Fat Pizza - Kettering, 25 Dalkeith Place, Kettering, NN16 0BS",52.399393,-0.7261475,Chicken 1;Mexican 1;,POINT (-0.7261475 52.399393),peckwater,E06000061,North Northamptonshire [note 3],E06000061_10_9,E06000061_20_10,E06000061_30_1,E06000061_40_1
36,TJs Bar and Grill - Corby,"Unit 1, Parkland Gateway, George St",Parkland Gateway,NN17 1QA,447746768074,"TJs Bar and Grill - Corby, Unit 1, Parkland Gateway, George St, Parkland Gateway, NN17 1QA",52.4880177,-0.7041012,Mexican 1;,POINT (-0.7041012 52.4880177),peckwater,E06000061,North Northamptonshire [note 3],E06000061_10_12,E06000061_20_9,E06000061_30_9,E06000061_40_7
16,Allen's Fried Chicken - Bolton,300 Chorley Old Rd,Bolton,BL1 4JU,4401204841181,"Allen's Fried Chicken - Bolton, 300 Chorley Old Rd, Bolton, BL1 4JU",53.5870201,-2.4525322,Chicken 1;Mexican 1;,POINT (-2.4525322 53.5870201),peckwater,E08000001,Bolton,E08000001_10_25,E08000001_20_0,E08000001_30_0,E08000001_40_0
45,Shake 'N' Burg,53 Bradshawgate,Bolton,BL1 1DR,07958 141666,"Shake 'N' Burg, 53 Bradshawgate, Bolton, BL1 1DR",53.5782342,-2.426352,Chicken 1;,POINT (-2.426352 53.5782342),peckwater,E08000001,Bolton,E08000001_10_3,E08000001_20_3,E08000001_30_3,E08000001_40_3
12,Elephant & Castle Bolton - STG,4-10 Deansgate,Bolton,BL1 1BR,,"Elephant & Castle Bolton - STG, 4-10 Deansgate, Bolton, BL1 1BR",53.57984279999999,-2.4271344,Stonegate 2;,POINT (-2.4271344 53.57984279999999),peckwater,E08000001,Bolton,E08000001_10_30,E08000001_20_3,E08000001_30_3,E08000001_40_3
64,Tropical Cafe,63 Derby Street,Bolton,BL3 6HE,01204 770335,"Tropical Cafe, 63 Derby Street, Bolton, BL3 6HE",53.5727327,-2.4350484,Chicken 2;,POINT (-2.4350484 53.5727327),peckwater,E08000001,Bolton,E08000001_10_38,E08000001_20_29,E08000001_30_4,E08000001_40_4
67,Flavour Burstz,299 Plodder Lane,Bolton,BL4 0BR,,"Flavour Burstz, 299 Plodder Lane, Bolton, BL4 0BR",53.5488766,-2.4201882,Chicken 1;Mexican 1;,POINT (-2.4201882 53.5488766),peckwater,E08000001,Bolton,E08000001_10_5,E08000001_20_5,E08000001_30_5,E08000001_40_5
82,Yasmine Beirut Cafe,115 Market Street,Farnworth,BL4 8EX,7944272344,"Yasmine Beirut Cafe, 115 Market Street, Farnworth, BL4 8EX",53.5487933,-2.3932812,Chicken 2;,POINT (-2.3932812 53.5487933),peckwater,E08000001,Bolton,E08000001_10_10,E08000001_20_9,E08000001_30_9,E08000001_40_9
17,Players Oldham,Unit 4 Elk Mill Retail Park,Oldham,OL2 5HX,4401616267547,"Players Oldham, Unit 4 Elk Mill Retail Park, Oldham, OL2 5HX",53.5584352,-2.1388684,Mexican 1;,POINT (-2.1388684 53.5584352),peckwater,E08000004,Oldham,E08000004_10_48,E08000004_20_16,E08000004_30_1,E08000004_40_1
18,Players Rochdale,11 Oldham Rd,Rochdale,OL16 1UA,4401706340002,"Players Rochdale, 11 Oldham Rd, Rochdale, OL16 1UA",53.6112277,-2.1501796,Chicken 1;Mexican 1;,POINT (-2.1501796 53.6112277),peckwater,E08000005,Rochdale,E08000005_10_22,E08000005_20_4,E08000005_30_1,E08000005_40_1
2,Yates Rochdale - STG,10 Fleece Street,Greater Manchester,OL16 1ND,,"Yates Rochdale - STG, 10 Fleece Street, Greater Manchester, OL16 1ND",53.6162512,-2.1575843,Stonegate 2;,POINT (-2.1575843 53.6162512),peckwater,E08000005,Rochdale,E08000005_10_14,E08000005_20_6,E08000005_30_5,E08000005_40_1
20,Malai Restaurant ,8 Plumstead High Street,Plumstead,SE18 1SN,7444532055,"Malai Restaurant , 8 Plumstead High Street, Plumstead, SE18 1SN",51.4893186,0.08590049999999999,Chicken 1;,POINT (0.0859005 51.4893186),peckwater,E09000011,Greenwich,E09000011_10_7,E09000011_20_7,E09000011_30_6,E09000011_40_6
110,Two Happy Chefs,215 Eltham High Street,London ,SE9 1TX,447903391602,"Two Happy Chefs, 215 Eltham High Street, London , SE9 1TX",51.4509475,0.0597133,Mexican 1;Chicken 1;,POINT (0.0597133 51.4509475),peckwater,E09000011,Greenwich,E09000011_10_25,E09000011_20_21,E09000011_30_4,E09000011_40_4
21,The Fat Pizza - Basildon,Unit 23 - Olympic Business Centre,Paycocke Road,SS14 3EX,+44 1268 975015,"The Fat Pizza - Basildon, Unit 23 - Olympic Business Centre, Paycocke Road, SS14 3EX",51.5891659,0.4936342,Chicken 1;,POINT (0.4936342 51.5891659),peckwater,E07000066,Basildon,E07000066_10_22,E07000066_20_12,E07000066_30_9,E07000066_40_8
22,Burgerlicious ,322 London Rd,South Benfleet,SS7 5XR ,07957 316127 ,"Burgerlicious , 322 London Rd, South Benfleet, SS7 5XR ",51.5660222,0.5633045,Chicken 1;,POINT (0.5633045 51.5660222),peckwater,E07000069,Castle Point,E07000069_10_1,E07000069_20_0,E07000069_30_0,E07000069_40_0
23,Koffee-Lab,94 Alfred Gelder Street,Hull,HU1 2AN,7833220012,"Koffee-Lab, 94 Alfred Gelder Street, Hull, HU1 2AN",53.7439482,-0.3350044,Mexican 1;,POINT (-0.3350044 53.7439482),peckwater,E06000010,"Kingston upon Hull, City of",E06000010_10_32,E06000010_20_16,E06000010_30_12,E06000010_40_6
46,The Haworth Hull,449 Beverley Road,Hull,HU6 7LD,,"The Haworth Hull, 449 Beverley Road, Hull, HU6 7LD",53.76872890000001,-0.3541248,Stonegate 2;,POINT (-0.3541248 53.76872890000001),peckwater,E06000010,"Kingston upon Hull, City of",E06000010_10_0,E06000010_20_0,E06000010_30_0,E06000010_40_0
24,STEAKOUT COVENTRY,6 Corporation Street,Coventry,CV1 1GF,7864909499,"STEAKOUT COVENTRY, 6 Corporation Street, Coventry, CV1 1GF",52.4086844,-1.5146743,Mexican 1;,POINT (-1.5146743 52.4086844),peckwater,E08000026,Coventry,E08000026_10_33,E08000026_20_25,E08000026_30_14,E08000026_40_5
33,Franzos,"Franzos,  14b Corporation Street",Coventry,CV1 1GF,024 75092252,"Franzos, Franzos,  14b Corporation Street, Coventry, CV1 1GF",52.4089628,-1.5143643,Chicken 2;,POINT (-1.5143643 52.4089628),peckwater,E08000026,Coventry,E08000026_10_33,E08000026_20_5,E08000026_30_5,E08000026_40_5
27,Aardvark Coventry - STG,2 Butts,West Midlands,CV1 3GR,,"Aardvark Coventry - STG, 2 Butts, West Midlands, CV1 3GR",52.4050746,-1.5207827,Stonegate 2;,POINT (-1.5207827 52.4050746),peckwater,E08000026,Coventry,E08000026_10_34,E08000026_20_0,E08000026_30_0,E08000026_40_0
11,Phoenix,122 Gosford Street,Coventry,CV1 5DL,02476 520387,"Phoenix, 122 Gosford Street, Coventry, CV1 5DL",52.4066003,-1.5039455,Chicken 1;Stonegate 2;,POINT (-1.5039455 52.4066003),peckwater,E08000026,Coventry,E08000026_10_36,E08000026_20_2,E08000026_30_2,E08000026_40_1
26,Spicy Grill,96,Friargate,PR1 2ED,7383992076,"Spicy Grill, 96, Friargate, PR1 2ED",53.7621944,-2.7057821,Chicken 2;Mexican 1;,POINT (-2.7057821 53.7621944),peckwater,E07000123,Preston,E07000123_10_5,E07000123_20_1,E07000123_30_1,E07000123_40_1
60,Casablanca,11-13 Corporation Street,Preston,PR1 2UP,07710 497495,"Casablanca, 11-13 Corporation Street, Preston, PR1 2UP",53.7577057,-2.7058976,Chicken 1;Mexican 1;,POINT (-2.7058976 53.7577057),peckwater,E07000123,Preston,E07000123_10_14,E07000123_20_11,E07000123_30_1,E07000123_40_1
7,Roper Hall Preston - STG,Friargate,Lancashire,PR1 2EE,,"Roper Hall Preston - STG, Friargate, Lancashire, PR1 2EE",53.7607684,-2.7042423,Stonegate 2;,POINT (-2.7042423 53.7607684),peckwater,E07000123,Preston,E07000123_10_6,E07000123_20_5,E07000123_30_4,E07000123_40_3
27,Tonisfishbar,Herlington 22,Orton Malborne,PE2 5PN,7713052630,"Tonisfishbar, Herlington 22, Orton Malborne, PE2 5PN",52.5475768,-0.2770602,Mexican 1;,POINT (-0.2770602 52.5475768),peckwater,E06000031,Peterborough,E06000031_10_14,E06000031_20_10,E06000031_30_7,E06000031_40_6
22,Sir Henry Royce Peterborough - STG,1-3 The Broadway,Cambridgeshire,PE1 1TA,,"Sir Henry Royce Peterborough - STG, 1-3 The Broadway, Cambridgeshire, PE1 1TA",52.5746805,-0.2415116,Stonegate 2;,POINT (-0.2415116 52.5746805),peckwater,E06000031,Peterborough,E06000031_10_1,E06000031_20_1,E06000031_30_0,E06000031_40_0
30,The Blue Ball ,Blue Ball Public House,Deans Lane,KT20 7UE,01737 819003,"The Blue Ball , Blue Ball Public House, Deans Lane, KT20 7UE",51.2834991,-0.2410793,Chicken 1;,POINT (-0.2410793 51.2834991),peckwater,E07000211,Reigate and Banstead,E07000211_10_17,E07000211_20_7,E07000211_30_8,E07000211_40_4
31,Harnham Fish Bar,Norfolk Road,Salisbury,SP28HF,447899092784,"Harnham Fish Bar, Norfolk Road, Salisbury, SP28HF",51.0609655,-1.8134816,Chicken 1;,POINT (-1.8134816 51.0609655),peckwater,E06000054,Wiltshire,E06000054_10_15,E06000054_20_11,E06000054_30_6,E06000054_40_6
33,Flavours of India,114 London Rd,"Dunton Green, Sevenoaks ",TN13 2UT,447534004764,"Flavours of India, 114 London Rd, Dunton Green, Sevenoaks , TN13 2UT",51.29439619999999,0.1667315,Mexican 1;,POINT (0.1667315 51.29439619999999),peckwater,E07000111,Sevenoaks,E07000111_10_9,E07000111_20_1,E07000111_30_1,E07000111_40_0
34,Chicken.com Cotteridge ,Unit 3,23 Watford Road,B30 1JB,7384564343,"Chicken.com Cotteridge , Unit 3, 23 Watford Road, B30 1JB",52.4166325,-1.9308324,Mexican 1;,POINT (-1.9308324 52.4166325),peckwater,E08000025,Birmingham,E08000025_10_30,E08000025_20_5,E08000025_30_5,E08000025_40_5
37,Southside Fish Bar,"1191 Bristol Road South, Northfield",Birmingham,B31 2SL,0121 4487060,"Southside Fish Bar, 1191 Bristol Road South, Northfield, Birmingham, B31 2SL",52.4046113,-1.9797178,Chicken 1;,POINT (-1.9797178 52.4046113),peckwater,E08000025,Birmingham,E08000025_10_10,E08000025_20_10,E08000025_30_10,E08000025_40_10
58,Hungry Bitez,157 York Road,Birmingham,B28 8LF,1217773786,"Hungry Bitez, 157 York Road, Birmingham, B28 8LF",52.4385533,-1.8381134,Chicken 1;,POINT (-1.8381134 52.4385533),peckwater,E08000025,Birmingham,E08000025_10_259,E08000025_20_91,E08000025_30_72,E08000025_40_87
98,DIXY Chicken,7 Pound Road,Birmingham,B14 5SB,7462588745,"DIXY Chicken, 7 Pound Road, Birmingham, B14 5SB",52.4053021,-1.8988693,Chicken 1;,POINT (-1.8988693 52.4053021),peckwater,E08000025,Birmingham,E08000025_10_198,E08000025_20_137,E08000025_30_114,E08000025_40_95
113,Gangnam Chicken,"Unit 4, 50 St George's Street",Birmingham,B19 3QU,7311453175,"Gangnam Chicken, Unit 4, 50 St George's Street, Birmingham, B19 3QU",52.4896682,-1.90191,Chicken 2;,POINT (-1.90191 52.4896682),peckwater,E08000025,Birmingham,E08000025_10_2,E08000025_20_2,E08000025_30_2,E08000025_40_2
21,Digby Birmingham - STG,911 Chester Road Erdington,Birmingham,B24 0HJ,,"Digby Birmingham - STG, 911 Chester Road Erdington, Birmingham, B24 0HJ",52.5295171,-1.8155573,Stonegate 2;,POINT (-1.8155573 52.5295171),peckwater,E08000025,Birmingham,E08000025_10_314,E08000025_20_129,E08000025_30_34,E08000025_40_32
28,Brasshouse Birmingham - STG,44 Broad Street,West Midlands,B1 2HP,,"Brasshouse Birmingham - STG, 44 Broad Street, West Midlands, B1 2HP",52.4777462,-1.9113586,Stonegate 2;,POINT (-1.9113586 52.4777462),peckwater,E08000025,Birmingham,E08000025_10_82,E08000025_20_78,E08000025_30_51,E08000025_40_47
1,Gosta Green,Holt Street,Birmingham,B7 4BG,0121 359 0044,"Gosta Green, Holt Street, Birmingham, B7 4BG",52.4878723,-1.8871942,Chicken 1;Stonegate 2;,POINT (-1.8871942 52.4878723),peckwater,E08000025,Birmingham,E08000025_10_247,E08000025_20_82,E08000025_30_60,E08000025_40_54
35,Gios Pizza - Macclesfield,24 Sunderland St,Macclesfield,SK11 6JL,447853326632,"Gios Pizza - Macclesfield, 24 Sunderland St, Macclesfield, SK11 6JL",53.2579493,-2.1223391,Chicken 1;,POINT (-2.1223391 53.2579493),peckwater,E06000049,Cheshire East,E06000049_10_0,E06000049_20_0,E06000049_30_0,E06000049_40_0
52,Maccway - Macclesfield,114 Mill St,Macclesfield,SK11 6NR,447491389139,"Maccway - Macclesfield, 114 Mill St, Macclesfield, SK11 6NR",53.2572751,-2.1251937,Chicken 1;,POINT (-2.1251937 53.2572751),peckwater,E06000049,Cheshire East,E06000049_10_1,E06000049_20_1,E06000049_30_1,E06000049_40_1
5,Cross Keys Hotel Knutsford - STG,52 King Street,Knutsford,WA16 6DT,,"Cross Keys Hotel Knutsford - STG, 52 King Street, Knutsford, WA16 6DT",53.3039701,-2.3728243,Stonegate 2;,POINT (-2.3728243 53.3039701),peckwater,E06000049,Cheshire East,E06000049_10_28,E06000049_20_7,E06000049_30_7,E06000049_40_6
39,Dill & Bay Restaurant ,19 Marsh St,Rothwell,LS26 0AG,0113 282 8597,"Dill & Bay Restaurant , 19 Marsh St, Rothwell, LS26 0AG",53.7472144,-1.4777171,Chicken 1;Mexican 1;,POINT (-1.4777171 53.7472144),peckwater,E08000035,Leeds,E08000035_10_207,E08000035_20_90,E08000035_30_43,E08000035_40_39
48,Rustica,"30 Blenheim Terrace, Woodhouse",Leeds,LS2 9HD,0113 2467999,"Rustica, 30 Blenheim Terrace, Woodhouse, Leeds, LS2 9HD",53.8079127,-1.5519174,Chicken 2;,POINT (-1.5519174 53.8079127),peckwater,E08000035,Leeds,E08000035_10_13,E08000035_20_12,E08000035_30_12,E08000035_40_12
15,Dry Dock,Woodhouse Lane,Leeds,LS2 3AX,0113 3912658,"Dry Dock, Woodhouse Lane, Leeds, LS2 3AX",53.8050434,-1.5472133,Chicken 1;Stonegate 2;,POINT (-1.5472133 53.8050434),peckwater,E08000035,Leeds,E08000035_10_59,E08000035_20_50,E08000035_30_12,E08000035_40_12
5,Library,229 Woodhouse Lane,Leeds,LS2 3AP,0113 244 0794,"Library, 229 Woodhouse Lane, Leeds, LS2 3AP",53.81076359999999,-1.5568336,Stonegate 1;Chicken 1;Stonegate 2;,POINT (-1.5568336 53.81076359999999),peckwater,E08000035,Leeds,E08000035_10_73,E08000035_20_4,E08000035_30_4,E08000035_40_4
40,Editors draught Leeds,88 Wellington Street,Leeds,LS1 4LT,,"Editors draught Leeds, 88 Wellington Street, Leeds, LS1 4LT",53.7968616,-1.5551744,Stonegate 2;,POINT (-1.5551744 53.7968616),peckwater,E08000035,Leeds,E08000035_10_115,E08000035_20_38,E08000035_30_31,E08000035_40_32
40,KBS Kebab House - Cardiff,242 City Road,Cardiff,CF24 3JJ,07598 696560,"KBS Kebab House - Cardiff, 242 City Road, Cardiff, CF24 3JJ",51.4922534,-3.1713347,Chicken 1;,POINT (-3.1713347 51.4922534),peckwater,W06000015,Cardiff,W06000015_10_38,W06000015_20_4,W06000015_30_4,W06000015_40_3
156,Katiwok - New Deal,92 Crwys Road,Cardiff, CF24 4NP,+44 7738 858423,"Katiwok - New Deal, 92 Crwys Road, Cardiff,  CF24 4NP",51.4960183,-3.1794454,Mexican 1;,POINT (-3.1794454 51.4960183),peckwater,W06000015,Cardiff,W06000015_10_6,W06000015_20_6,W06000015_30_6,W06000015_40_5
31,The Woodville,1-5 Woodville Road,Cardiff,CF24 4DW,,"The Woodville, 1-5 Woodville Road, Cardiff, CF24 4DW",51.4905664,-3.180577,Stonegate 2;,POINT (-3.180577 51.4905664),peckwater,W06000015,Cardiff,W06000015_10_30,W06000015_20_13,W06000015_30_17,W06000015_40_9
41,Star Grill,6 greenhill street,Startford upon-avon,CV376LF,441789264407,"Star Grill, 6 greenhill street, Startford upon-avon, CV376LF",52.1932181,-1.7118501,Chicken 1;,POINT (-1.7118501 52.1932181),peckwater,E07000221,Stratford-on-Avon,E07000221_10_5,E07000221_20_5,E07000221_30_1,E07000221_40_1
43,LopenRaj ,Lopen Head,Somerset,TA13 5JH,447912987073,"LopenRaj , Lopen Head, Somerset, TA13 5JH",50.9333728,-2.8203548,Chicken 1;,POINT (-2.8203548 50.9333728),peckwater,E07000189,South Somerset,E07000189_10_6,E07000189_20_1,E07000189_30_1,E07000189_40_1
44,Taco Mex -Sheffield,84 London Rd,Highfield ,S2 4LR,447446194092,"Taco Mex -Sheffield, 84 London Rd, Highfield , S2 4LR",53.3710888,-1.4775574,Mexican 1;,POINT (-1.4775574 53.3710888),peckwater,E08000019,Sheffield,E08000019_10_20,E08000019_20_16,E08000019_30_1,E08000019_40_12
8,Graduate,94 Surrey Street,Sheffield,S1 2LH,0114 2753767,"Graduate, 94 Surrey Street, Sheffield, S1 2LH",53.3799647,-1.4674736,Chicken 1;Stonegate 2;,POINT (-1.4674736 53.3799647),peckwater,E08000019,Sheffield,E08000019_10_55,E08000019_20_43,E08000019_30_37,E08000019_40_12
45,Taco Mex Rustlings Rd,84 London Rd,Highfield ,S11 7AA,447446194092,"Taco Mex Rustlings Rd, 84 London Rd, Highfield , S11 7AA",53.3666742,-1.507415,Mexican 1;,POINT (-1.507415 53.3666742),peckwater,E08000019,Sheffield,E08000019_10_117,E08000019_20_48,E08000019_30_41,E08000019_40_32
49,The Peacock Stannington,"714 Stannington Road, ",714 Stannington Road, S6 6AJ,01142 342 505,"The Peacock Stannington, 714 Stannington Road, , 714 Stannington Road,  S6 6AJ",53.3938608,-1.5432184,Chicken 1;,POINT (-1.5432184 53.3938608),peckwater,E08000019,Sheffield,E08000019_10_42,E08000019_20_35,E08000019_30_32,E08000019_40_32
46,Taco Mex - Abbeydale Rd,84 London Rd,Highfield ,S7 2QD,447446194092,"Taco Mex - Abbeydale Rd, 84 London Rd, Highfield , S7 2QD",53.3467238,-1.4955529,Mexican 1;,POINT (-1.4955529 53.3467238),peckwater,E08000019,Sheffield,E08000019_10_35,E08000019_20_29,E08000019_30_27,E08000019_40_23
48,Cavendish Sheffield,220-238 West Street,Sheffield,S1 4EU,,"Cavendish Sheffield, 220-238 West Street, Sheffield, S1 4EU",53.3802898,-1.4794057,Stonegate 2;,POINT (-1.4794057 53.3802898),peckwater,E08000019,Sheffield,E08000019_10_82,E08000019_20_9,E08000019_30_26,E08000019_40_9
50,Peri Chicken ,403,Bath Road,SL1 5QL,7376334861,"Peri Chicken , 403, Bath Road, SL1 5QL",51.5195871,-0.6444725,Chicken 1;,POINT (-0.6444725 51.5195871),peckwater,E06000039,Slough,E06000039_10_1,E06000039_20_1,E06000039_30_1,E06000039_40_1
96,Champinos Pizza ,6 Chalvey Road East,Slough,SL1 2LX,7834391880,"Champinos Pizza , 6 Chalvey Road East, Slough, SL1 2LX",51.5060897,-0.6032364,Chicken 2;Mexican 1;,POINT (-0.6032364 51.5060897),peckwater,E06000039,Slough,E06000039_10_11,E06000039_20_9,E06000039_30_9,E06000039_40_2
51,Peri Peri Original West Drayton,77 High Street,Yiewsley,UB7 7QH,7903019376,"Peri Peri Original West Drayton, 77 High Street, Yiewsley, UB7 7QH",51.51254669999999,-0.4727642,Chicken 1;,POINT (-0.4727642 51.51254669999999),peckwater,E09000017,Hillingdon,E09000017_10_23,E09000017_20_18,E09000017_30_16,E09000017_40_8
26,Tikka Nation - Eskdale Road,Eskdale Road,Uxbridge,UB8 2RT,07727 207741,"Tikka Nation - Eskdale Road, Eskdale Road, Uxbridge, UB8 2RT",51.5373397,-0.4931517,Mexican 1;,POINT (-0.4931517 51.5373397),peckwater,E09000017,Hillingdon,E09000017_10_56,E09000017_20_36,E09000017_30_14,E09000017_40_12
52,Fab Commerce Ltd,Eskdale Road,Uxbridge,UB8 2RT,,"Fab Commerce Ltd, Eskdale Road, Uxbridge, UB8 2RT",51.5373397,-0.4931517,Chicken 1;Chicken 2;,POINT (-0.4931517 51.5373397),peckwater,E09000017,Hillingdon,E09000017_10_56,E09000017_20_36,E09000017_30_14,E09000017_40_12
66,Fusion Tadka,36 High Street,Northwood,HA6 1BN,,"Fusion Tadka, 36 High Street, Northwood, HA6 1BN",51.6062613,-0.4163725,Chicken 1;,POINT (-0.4163725 51.6062613),peckwater,E09000017,Hillingdon,E09000017_10_35,E09000017_20_9,E09000017_30_24,E09000017_40_6
134,The Wheatsheaf,286 High St,Hayes,UB3 5DU ,7932997680,"The Wheatsheaf, 286 High St, Hayes, UB3 5DU ",51.4858535,-0.4350646,Mexican 1;,POINT (-0.4350646 51.4858535),peckwater,E09000017,Hillingdon,E09000017_10_92,E09000017_20_31,E09000017_30_7,E09000017_40_22
23,Millers Tap,219-221 High Street,Uxbridge,UB8 1LB,7706 018009,"Millers Tap, 219-221 High Street, Uxbridge, UB8 1LB",51.5451146,-0.4766224999999999,Chicken 2;Stonegate 1;Stonegate 2;,POINT (-0.4766224999999999 51.5451146),peckwater,E09000017,Hillingdon,E09000017_10_1,E09000017_20_1,E09000017_30_1,E09000017_40_1
53,International Bites,286 King Street,Hammersmith,W6 0SP,7443243587,"International Bites, 286 King Street, Hammersmith, W6 0SP",51.493709,-0.2405054,Chicken 1;,POINT (-0.2405054 51.493709),peckwater,E09000013,Hammersmith and Fulham,E09000013_10_24,E09000013_20_12,E09000013_30_10,E09000013_40_9
130,The Grill House & Pizza - New Deal,198 North End Road,London,W14 9NX,07958 621197,"The Grill House & Pizza - New Deal, 198 North End Road, London, W14 9NX",51.4869486,-0.2034797,Chicken 2;Mexican 1;,POINT (-0.2034797 51.4869486),peckwater,E09000013,Hammersmith and Fulham,E09000013_10_27,E09000013_20_16,E09000013_30_14,E09000013_40_3
55,Number 34 ,34 north station road ,Colchester,Co11rb,+44 7773 204838,"Number 34 , 34 north station road , Colchester, Co11rb",51.8954371,0.8955188,Chicken 1;,POINT (0.8955188 51.8954371),peckwater,E07000071,Colchester,E07000071_10_3,E07000071_20_2,E07000071_30_2,E07000071_40_2
56,The Chicken Shop,86 Weston Grove,Upton,CH2 1QL,4401244370370,"The Chicken Shop, 86 Weston Grove, Upton, CH2 1QL",53.2140455,-2.8806992,Mexican 1;,POINT (-2.8806992 53.2140455),peckwater,E06000050,Cheshire West and Chester,E06000050_10_43,E06000050_20_10,E06000050_30_13,E06000050_40_5
3,Town Crier Chester - STG,City Road,Cheshire,CH1 3AE,,"Town Crier Chester - STG, City Road, Cheshire, CH1 3AE",53.1929101,-2.8817795,Stonegate 2;,POINT (-2.8817795 53.1929101),peckwater,E06000050,Cheshire West and Chester,E06000050_10_11,E06000050_20_5,E06000050_30_2,E06000050_40_2
0,A1 Golden Fry,111 Victoria Road,Darlington,DL1 5JH,01325 488949,"A1 Golden Fry, 111 Victoria Road, Darlington, DL1 5JH",54.5215516,-1.5505587,Chicken 1;,POINT (-1.5505587 54.5215516),peckwater,E06000005,Darlington,E06000005_10_1,E06000005_20_1,E06000005_30_1,E06000005_40_1
1,Bloom Cafe (Cafe Ole),"70 Westow Hill, Upper Norwood",London,SE19 1SB,020 8670 1786,"Bloom Cafe (Cafe Ole), 70 Westow Hill, Upper Norwood, London, SE19 1SB",51.41960630000001,-0.07969509999999999,Chicken 1;Mexican 1;,POINT (-0.0796951 51.41960630000001),peckwater,E09000008,Croydon,E09000008_10_22,E09000008_20_18,E09000008_30_16,E09000008_40_15
129,Chick'n Box,79 George Street,Croydon,CR0 1LD,7947347647,"Chick'n Box, 79 George Street, Croydon, CR0 1LD",51.3745384,-0.0948563,Mexican 1;,POINT (-0.0948563 51.3745384),peckwater,E09000008,Croydon,E09000008_10_36,E09000008_20_12,E09000008_30_12,E09000008_40_19
25,The Green Dragon,58-60  High Street,Croydon,CR0 1NA,7706 018009,"The Green Dragon, 58-60  High Street, Croydon, CR0 1NA",51.3716807,-0.1006867,Chicken 2;Stonegate 1;Stonegate 2;,POINT (-0.1006867 51.3716807),peckwater,E09000008,Croydon,E09000008_10_56,E09000008_20_23,E09000008_30_21,E09000008_40_19
2,Burger Boulevard,"350 Baring Road, Grove Park",London,SE120DU,,"Burger Boulevard, 350 Baring Road, Grove Park, London, SE120DU",51.4314437,0.020979,Chicken 1;,POINT (0.020979 51.4314437),peckwater,E09000023,Lewisham,E09000023_10_102,E09000023_20_37,E09000023_30_31,E09000023_40_15
63,Pizza Roma - Catford,267 Brownhill Rd,Catford,SE6 1AE,7429145315,"Pizza Roma - Catford, 267 Brownhill Rd, Catford, SE6 1AE",51.44525290000001,-0.0045023,Chicken 1;Chicken 2;Mexican 1;,POINT (-0.0045023 51.44525290000001),peckwater,E09000023,Lewisham,E09000023_10_13,E09000023_20_10,E09000023_30_9,E09000023_40_9
128,Super Pizza,Brockley Rise,Crofton Park,SE23 1LN,7413003995,"Super Pizza, Brockley Rise, Crofton Park, SE23 1LN",51.4481894,-0.040947,Chicken 1;,POINT (-0.040947 51.4481894),peckwater,E09000023,Lewisham,E09000023_10_61,E09000023_20_7,E09000023_30_7,E09000023_40_2
3,Chester's Chicken,"76-77 Cariocca Business Park, Hellidon Close",Manchester,M12 4AH,1615198910,"Chester's Chicken, 76-77 Cariocca Business Park, Hellidon Close, Manchester, M12 4AH",53.4683353,-2.2173177,Chicken 1;Chicken 2;,POINT (-2.2173177 53.4683353),peckwater,E08000003,Manchester,E08000003_10_29,E08000003_20_25,E08000003_30_24,E08000003_40_32
125,Flame Chicken,"58, 60 Higher Ardwick",Manchester,M12 6DA,4407790055522,"Flame Chicken, 58, 60 Higher Ardwick, Manchester, M12 6DA",53.4714471,-2.2180825,Chicken 2;,POINT (-2.2180825 53.4714471),peckwater,E08000003,Manchester,E08000003_10_14,E08000003_20_37,E08000003_30_24,E08000003_40_32
111,Universal Kitchens - Ardwick,37-45 Devonshire Street North,Ardwick,M12 6JR,447930748888,"Universal Kitchens - Ardwick, 37-45 Devonshire Street North, Ardwick, M12 6JR",53.4716544,-2.21589,Mexican 1;Chicken 2;,POINT (-2.21589 53.4716544),peckwater,E08000003,Manchester,E08000003_10_93,E08000003_20_37,E08000003_30_10,E08000003_40_32
12,Allen's Fried Chicken,448 Cheetham Hill Road,Manchester,M8 9LE,1616371181,"Allen's Fried Chicken, 448 Cheetham Hill Road, Manchester, M8 9LE",53.5099143,-2.2432519,Chicken 1;Chicken 2;,POINT (-2.2432519 53.5099143),peckwater,E08000003,Manchester,E08000003_10_183,E08000003_20_106,E08000003_30_76,E08000003_40_7
70,Real Burger,1 Robin Hood Street,Cheetham Hill,M8 9JG,07492 802533,"Real Burger, 1 Robin Hood Street, Cheetham Hill, M8 9JG",53.5116324,-2.245436,Mexican 1;,POINT (-2.245436 53.5116324),peckwater,E08000003,Manchester,E08000003_10_125,E08000003_20_7,E08000003_30_7,E08000003_40_7
27,Sultan,513 Wilmslow Road,Manchester,M20 4BA,0161 2780379,"Sultan, 513 Wilmslow Road, Manchester, M20 4BA",53.4313428,-2.2284745,Chicken 1;Mexican 1;,POINT (-2.2284745 53.4313428),peckwater,E08000003,Manchester,E08000003_10_104,E08000003_20_42,E08000003_30_22,E08000003_40_19
54,Brooks Fish & Chip,"89 Wendover Rd, Manchester M23 9EG",Manchester,M23 9EG,0161 998 4736,"Brooks Fish & Chip, 89 Wendover Rd, Manchester M23 9EG, Manchester, M23 9EG",53.4045628,-2.3041026,Chicken 1;,POINT (-2.3041026 53.4045628),peckwater,E08000003,Manchester,E08000003_10_95,E08000003_20_71,E08000003_30_62,E08000003_40_56
83,Saray Restaurant ,609 Wilbraham Road,Manchester,M21 9AN,7717418526,"Saray Restaurant , 609 Wilbraham Road, Manchester, M21 9AN",53.442412,-2.2792278,Chicken 1;,POINT (-2.2792278 53.442412),peckwater,E08000003,Manchester,E08000003_10_64,E08000003_20_49,E08000003_30_44,E08000003_40_42
0,Directors Box Manchester,37 Booth Street,Manchester,M2 4AA,,"Directors Box Manchester, 37 Booth Street, Manchester, M2 4AA",53.47955839999999,-2.2420785,Stonegate 2;,POINT (-2.2420785 53.47955839999999),peckwater,E08000003,Manchester,E08000003_10_131,E08000003_20_53,E08000003_30_65,E08000003_40_35
4,Desperados Grill + Cantina,"6 Station Square, Orpington",London,BR5 1NA,1689836655,"Desperados Grill + Cantina, 6 Station Square, Orpington, London, BR5 1NA",51.389995,0.0747543,Chicken 1;Mexican 1;,POINT (0.0747543 51.389995),peckwater,E09000006,Bromley,E09000006_10_24,E09000006_20_13,E09000006_30_10,E09000006_40_12
13,The Prince,76 Bromley Road,Beckenham ,BR3 5NP,2086584081,"The Prince, 76 Bromley Road, Beckenham , BR3 5NP",51.4070216,-0.0182159,Chicken 1;Chicken 2;Mexican 1;,POINT (-0.0182159 51.4070216),peckwater,E09000006,Bromley,E09000006_10_55,E09000006_20_22,E09000006_30_14,E09000006_40_13
105,The Darjeeling,123 - 125 Masons Hill,Bromley,BR2 9HT,7460696689,"The Darjeeling, 123 - 125 Masons Hill, Bromley, BR2 9HT",51.3968234,0.023689,Chicken 1;Chicken 2;,POINT (0.023689 51.3968234),peckwater,E09000006,Bromley,E09000006_10_2,E09000006_20_2,E09000006_30_2,E09000006_40_2
7,Karahi Express,"378 Bath Road, Hounslow",London,TW4 7HT,,"Karahi Express, 378 Bath Road, Hounslow, London, TW4 7HT",51.4737188,-0.3894616,,POINT (-0.3894616 51.4737188),peckwater,E09000018,Hounslow,E09000018_10_58,E09000018_20_16,E09000018_30_4,E09000018_40_4
116,Beavers Lane Kebab House,55 Salisbury Rd,Hounslow ,TW4 7NW,447894388786,"Beavers Lane Kebab House, 55 Salisbury Rd, Hounslow , TW4 7NW",51.46951319999999,-0.396652,Chicken 1;,POINT (-0.396652 51.46951319999999),peckwater,E09000018,Hounslow,E09000018_10_62,E09000018_20_16,E09000018_30_12,E09000018_40_12
8,Queen's Kitchen,"8 Market Street, Bracknell",London,RG12 1JG,01344 360725,"Queen's Kitchen, 8 Market Street, Bracknell, London, RG12 1JG",51.4148483,-0.7530659000000001,Chicken 1;Mexican 1;,POINT (-0.7530659000000001 51.4148483),peckwater,E06000036,Bracknell Forest,E06000036_10_1,E06000036_20_1,E06000036_30_1,E06000036_40_1
9,Ritto's Clapham,16 Clapham High Street,London,SW4 7UT,2079671892,"Ritto's Clapham, 16 Clapham High Street, London, SW4 7UT",51.4649563,-0.1305547,Chicken 1;,POINT (-0.1305547 51.4649563),peckwater,E09000022,Lambeth,E09000022_10_51,E09000022_20_14,E09000022_30_13,E09000022_40_12
25,Coppa Di Pasta,296 Clapham Road ,London,SW9 9AE,079690 33216,"Coppa Di Pasta, 296 Clapham Road , London, SW9 9AE",51.4711446,-0.1244489,Chicken 2;Mexican 1;,POINT (-0.1244489 51.4711446),peckwater,E09000022,Lambeth,E09000022_10_20,E09000022_20_18,E09000022_30_17,E09000022_40_17
39,Godfather Pizza,152 Norwood Road,London,SE27 9AZ,020 86742000,"Godfather Pizza, 152 Norwood Road, London, SE27 9AZ",51.4409322,-0.1066859,Chicken 2;Mexican 1;,POINT (-0.1066859 51.4409322),peckwater,E09000022,Lambeth,E09000022_10_75,E09000022_20_52,E09000022_30_33,E09000022_40_2
10,Sakura,"1 Gordon Road, Carshalton",London,SM5 3RG,0208 773 3663,"Sakura, 1 Gordon Road, Carshalton, London, SM5 3RG",51.3574017,-0.1690395,Chicken 1;Chicken 2;Mexican 1;,POINT (-0.1690395 51.3574017),peckwater,E09000029,Sutton,E09000029_10_7,E09000029_20_7,E09000029_30_6,E09000029_40_6
20,Oh! Spice,"Unit 25, 57a Croydon Road, Beddington",Croydon,CR0 4WQ,020 38925994,"Oh! Spice, Unit 25, 57a Croydon Road, Beddington, Croydon, CR0 4WQ",51.366451,-0.1239486,Chicken 1;Chicken 2;,POINT (-0.1239486 51.366451),peckwater,E09000029,Sutton,E09000029_10_9,E09000029_20_3,E09000029_30_0,E09000029_40_0
75,The Smokin' Grill Steakhouse,"20 Cheam Common Road, Worcester Park",London,KT4 8RW,07423 050484,"The Smokin' Grill Steakhouse, 20 Cheam Common Road, Worcester Park, London, KT4 8RW",51.3715899,-0.2286218,Mexican 1;,POINT (-0.2286218 51.3715899),peckwater,E09000029,Sutton,E09000029_10_28,E09000029_20_20,E09000029_30_1,E09000029_40_1
22,Harrow Inn,"High Street, Cheam, SM3 8RL",Cheam,SM3 8RL,07706 018009,"Harrow Inn, High Street, Cheam, SM3 8RL, Cheam, SM3 8RL",51.3577688,-0.2157882,Chicken 2;Stonegate 1;Stonegate 2;,POINT (-0.2157882 51.3577688),peckwater,E09000029,Sutton,E09000029_10_45,E09000029_20_9,E09000029_30_8,E09000029_40_8
14,BARAKAH HOMES,29 Pepper Street,London,E14 9RP,7908645292,"BARAKAH HOMES, 29 Pepper Street, London, E14 9RP",51.4962825,-0.0183145,Chicken 1;Chicken 2;Mexican 1;,POINT (-0.0183145 51.4962825),peckwater,E09000030,Tower Hamlets,E09000030_10_64,E09000030_20_56,E09000030_30_18,E09000030_40_17
62,Manny's,194 Mile End Rd,Stepney,E1 4LJ,7951469999,"Manny's, 194 Mile End Rd, Stepney, E1 4LJ",51.5213018,-0.0480777,Mexican 1;,POINT (-0.0480777 51.5213018),peckwater,E09000030,Tower Hamlets,E09000030_10_114,E09000030_20_82,E09000030_30_65,E09000030_40_24
15,Tadka,209 Catherine Street,Leicester,LE4 6GE,0116 266 5666,"Tadka, 209 Catherine Street, Leicester, LE4 6GE",52.6508109,-1.1097027,Chicken 2;Mexican 1;,POINT (-1.1097027 52.6508109),peckwater,E06000016,Leicester,E06000016_10_18,E06000016_20_16,E06000016_30_16,E06000016_40_15
17,Leicester Cafe Grill,59A Evington Road ,Leicester,LE2 1QG,0116319 2830,"Leicester Cafe Grill, 59A Evington Road , Leicester, LE2 1QG",52.6263799,-1.114684,Chicken 1;,POINT (-1.114684 52.6263799),peckwater,E06000016,Leicester,E06000016_10_39,E06000016_20_23,E06000016_30_22,E06000016_40_0
78,Pizza Italiano,225 Narborough Road,Leicester,LE3 2QR,441164292979,"Pizza Italiano, 225 Narborough Road, Leicester, LE3 2QR",52.6229551,-1.1547225,Chicken 2;,POINT (-1.1547225 52.6229551),peckwater,E06000016,Leicester,E06000016_10_53,E06000016_20_32,E06000016_30_20,E06000016_40_17
45,Soar Point Leicester,25 The Newarke,Leicester,LE2 7BY,,"Soar Point Leicester, 25 The Newarke, Leicester, LE2 7BY",52.6308802,-1.1419526,Stonegate 2;,POINT (-1.1419526 52.6308802),peckwater,E06000016,Leicester,E06000016_10_75,E06000016_20_25,E06000016_30_11,E06000016_40_11
16,Esquires Coffee,31 Broadway,Bradford,BD1 1HA,01274 728347,"Esquires Coffee, 31 Broadway, Bradford, BD1 1HA",53.794107,-1.7512784,Chicken 1;,POINT (-1.7512784 53.794107),peckwater,E08000032,Bradford,E08000032_10_7,E08000032_20_7,E08000032_30_7,E08000032_40_7
19,East Beach Hotel,23-25 Royal Parade,Eastbourne,BN22 7AN,07849 222 623,"East Beach Hotel, 23-25 Royal Parade, Eastbourne, BN22 7AN",50.7721077,0.2974545,Chicken 1;Chicken 2;Mexican 1;,POINT (0.2974545 50.7721077),peckwater,E07000061,Eastbourne,E07000061_10_13,E07000061_20_8,E07000061_30_5,E07000061_40_1
21,Pizza Romano,256A London Road,London,CR4 3HD,020 86487732,"Pizza Romano, 256A London Road, London, CR4 3HD",51.4977881,-0.1036022,Chicken 1;,POINT (-0.1036022 51.4977881),peckwater,E09000028,Southwark,E09000028_10_58,E09000028_20_49,E09000028_30_3,E09000028_40_3
30,Food Rules Ltd,5 Westmoreland Road,London,SE172AX,07401 436846,"Food Rules Ltd, 5 Westmoreland Road, London, SE172AX",51.48408629999999,-0.09249879999999999,Chicken 1;Chicken 2;,POINT (-0.0924988 51.48408629999999),peckwater,E09000028,Southwark,E09000028_10_67,E09000028_20_6,E09000028_30_4,E09000028_40_4
122,19FiftySeven,660 Old Kent Rd,London,SE15 1JF,7875644431,"19FiftySeven, 660 Old Kent Rd, London, SE15 1JF",51.4824105,-0.06317099999999999,Chicken 2;,POINT (-0.063171 51.4824105),peckwater,E09000028,Southwark,E09000028_10_71,E09000028_20_51,E09000028_30_43,E09000028_40_17
22,Chowka Indian Kitchen,"20 High Street, Hampton Hill",London,TW121PD,"
020 89777124","Chowka Indian Kitchen, 20 High Street, Hampton Hill, London, TW121PD",51.4251039,-0.3573251,Chicken 2;Mexican 1;,POINT (-0.3573251 51.4251039),peckwater,E09000027,Richmond upon Thames,E09000027_10_37,E09000027_20_24,E09000027_30_20,E09000027_40_10
23,Best Kebab and Pizza,92 Leicester Road Wigston ,Leicestershire,LE18 1DR,0116 2811444,"Best Kebab and Pizza, 92 Leicester Road Wigston , Leicestershire, LE18 1DR",52.5879644,-1.1056313,Chicken 1;Mexican 1;,POINT (-1.1056313 52.5879644),peckwater,E07000135,Oadby and Wigston,E07000135_10_0,E07000135_20_0,E07000135_30_0,E07000135_40_0
24,Fusion Twist,Fusion Twist 2 Ye Corner Bushey,London ,WD19 4BS,01923 464940,"Fusion Twist, Fusion Twist 2 Ye Corner Bushey, London , WD19 4BS",51.646671,-0.3823543,Chicken 1;,POINT (-0.3823543 51.646671),peckwater,E07000103,Watford,E07000103_10_21,E07000103_20_14,E07000103_30_11,E07000103_40_8
118,The Fat Pizza - Watford,14 Market Street,Watford,WD18 0PD,7403612702,"The Fat Pizza - Watford, 14 Market Street, Watford, WD18 0PD",51.6551978,-0.3978315,Chicken 2;Mexican 1;,POINT (-0.3978315 51.6551978),peckwater,E07000103,Watford,E07000103_10_5,E07000103_20_2,E07000103_30_2,E07000103_40_2
28,Shawarma grill,72 High Road Leyton ,Stratford ,E15 2BP,020 82211881,"Shawarma grill, 72 High Road Leyton , Stratford , E15 2BP",51.5529478,-0.0048125,Chicken 1;,POINT (-0.0048125 51.5529478),peckwater,E09000031,Waltham Forest,E09000031_10_32,E09000031_20_26,E09000031_30_21,E09000031_40_10
87,Huckleberry (Chingford),16 Station Road,London,E4 7BE,7735897737,"Huckleberry (Chingford), 16 Station Road, London, E4 7BE",51.6316353,0.0042832,Chicken 1;,POINT (0.0042832 51.6316353),peckwater,E09000031,Waltham Forest,E09000031_10_24,E09000031_20_21,E09000031_30_18,E09000031_40_3
145,London Burgers - Chingford (MEX),75 Old Church Rd,Chingford Mount,E4 6ST,447875701216,"London Burgers - Chingford (MEX), 75 Old Church Rd, Chingford Mount, E4 6ST",51.6193037,-0.0169856,Chicken 2;Mexican 1;,POINT (-0.0169856 51.6193037),peckwater,E09000031,Waltham Forest,E09000031_10_26,E09000031_20_37,E09000031_30_0,E09000031_40_0
29,Chicken Express (Holloway),53 Seven sisters Road,London,N7 6AX,0208 2814405,"Chicken Express (Holloway), 53 Seven sisters Road, London, N7 6AX",51.559284,-0.1170119,Chicken 1;,POINT (-0.1170119 51.559284),peckwater,E09000019,Islington,E09000019_10_63,E09000019_20_25,E09000019_30_1,E09000019_40_1
35,Basement 144,144 Holloway Rd,London,N7 8DD,02076 810192,"Basement 144, 144 Holloway Rd, London, N7 8DD",51.5508801,-0.1097106,Chicken 2;,POINT (-0.1097106 51.5508801),peckwater,E09000019,Islington,E09000019_10_30,E09000019_20_27,E09000019_30_18,E09000019_40_20
26,Famous Cock Tavern,259 Upper Street,London,N1 1RU,07706 018009,"Famous Cock Tavern, 259 Upper Street, London, N1 1RU",51.5460311,-0.1034609,Chicken 2;Stonegate 1;Stonegate 2;,POINT (-0.1034609 51.5460311),peckwater,E09000019,Islington,E09000019_10_88,E09000019_20_26,E09000019_30_23,E09000019_40_16
31,Balti International,266-268 Uttoxeter New Road,Derby,DE22 3LL,01332 383044,"Balti International, 266-268 Uttoxeter New Road, Derby, DE22 3LL",52.918388,-1.4990972,Mexican 1;,POINT (-1.4990972 52.918388),peckwater,E06000015,Derby,E06000015_10_7,E06000015_20_7,E06000015_30_7,E06000015_40_7
65,Royals,354 Normanton Road,Derby,DE23 6WE,,"Royals, 354 Normanton Road, Derby, DE23 6WE",52.9092182,-1.4790691,Chicken 1;,POINT (-1.4790691 52.9092182),peckwater,E06000015,Derby,E06000015_10_12,E06000015_20_11,E06000015_30_4,E06000015_40_4
41,The Hideout Derby,9-11 Market Place,Derby,DE1 3QE,,"The Hideout Derby, 9-11 Market Place, Derby, DE1 3QE",52.923253,-1.4776402,Stonegate 2;,POINT (-1.4776402 52.923253),peckwater,E06000015,Derby,E06000015_10_32,E06000015_20_17,E06000015_30_5,E06000015_40_5
32,The London Lunchbox Company,11 The Broadway,Wembley ,HA9 8JU,020 89300119,"The London Lunchbox Company, 11 The Broadway, Wembley , HA9 8JU",51.5625964,-0.2922366,Mexican 1;,POINT (-0.2922366 51.5625964),peckwater,E09000005,Brent,E09000005_10_115,E09000005_20_28,E09000005_30_14,E09000005_40_13
148,Ritto's Brent Cross,964 North Circular Road ,London,NW2 7JR,7999996664,"Ritto's Brent Cross, 964 North Circular Road , London, NW2 7JR",51.56895429999999,-0.2384437,Chicken 1;,POINT (-0.2384437 51.56895429999999),peckwater,E09000005,Brent,E09000005_10_61,E09000005_20_37,E09000005_30_39,E09000005_40_16
34,Kaspers Kitchens,"Unit 7a/7b, Regents Studios, 8 Andrews Road, Hackney",London ,E8 4QN,0741 2661922,"Kaspers Kitchens, Unit 7a/7b, Regents Studios, 8 Andrews Road, Hackney, London , E8 4QN",51.5355351,-0.06041270000000001,Chicken 1;Chicken 2;,POINT (-0.0604127 51.5355351),peckwater,E09000012,Hackney,E09000012_10_17,E09000012_20_15,E09000012_30_12,E09000012_40_11
81,Flavorz,41 Stoke Newington High Street,Hackney,N16 8DR,7901567659,"Flavorz, 41 Stoke Newington High Street, Hackney, N16 8DR",51.5584842,-0.07458669999999999,Mexican 1;,POINT (-0.0745867 51.5584842),peckwater,E09000012,Hackney,E09000012_10_51,E09000012_20_39,E09000012_30_31,E09000012_40_12
36,Tasty Chicken,173 London Road,Mitcham,CR4 2JB,020 79983353,"Tasty Chicken, 173 London Road, Mitcham, CR4 2JB",51.4081916,-0.1629407,Chicken 2;,POINT (-0.1629407 51.4081916),peckwater,E09000024,Merton,E09000024_10_13,E09000024_20_12,E09000024_30_11,E09000024_40_0
49,Pizza Roma,"15 Abbotsbury Road, Morden",London,SM4 5LJ,020 86652666,"Pizza Roma, 15 Abbotsbury Road, Morden, London, SM4 5LJ",51.40270650000001,-0.1920105,Chicken 1;Chicken 2;Mexican 1;,POINT (-0.1920105 51.40270650000001),peckwater,E09000024,Merton,E09000024_10_3,E09000024_20_3,E09000024_30_3,E09000024_40_3
21,The Garratt And Gauge,18 Hartfield Road,London,SW19 3TA,7706 018009,"The Garratt And Gauge, 18 Hartfield Road, London, SW19 3TA",51.4197438,-0.2053552,Chicken 2;Stonegate 1;Stonegate 2;,POINT (-0.2053552 51.4197438),peckwater,E09000024,Merton,E09000024_10_28,E09000024_20_20,E09000024_30_2,E09000024_40_2
38,Mimosa,"The Atrium, First Floor, Charles Street",Camberley,GU15 3GP,01276 25688,"Mimosa, The Atrium, First Floor, Charles Street, Camberley, GU15 3GP",51.3372837,-0.7487596999999999,Mexican 1;Chicken 1;,POINT (-0.7487596999999999 51.3372837),peckwater,E07000214,Surrey Heath,E07000214_10_0,E07000214_20_0,E07000214_30_0,E07000214_40_0
68,Dynasty,9 Park Street,Camberley,GU15 3PQ,,"Dynasty, 9 Park Street, Camberley, GU15 3PQ",51.33883669999999,-0.7484263999999999,Chicken 2;,POINT (-0.7484263999999999 51.33883669999999),peckwater,E07000214,Surrey Heath,E07000214_10_7,E07000214_20_2,E07000214_30_0,E07000214_40_0
40,Goulash,78 Lower Bristol Road,Bath,BA2 3BG,07894 748688,"Goulash, 78 Lower Bristol Road, Bath, BA2 3BG",51.3796281,-2.3710251,Chicken 1;Mexican 1;,POINT (-2.3710251 51.3796281),peckwater,E06000022,Bath and North East Somerset,E06000022_10_0,E06000022_20_0,E06000022_30_0,E06000022_40_0
42,Eat Upton,"157 Ford Road, Birkenhead",Wirral,CH49 0TH,0151 6772209,"Eat Upton, 157 Ford Road, Birkenhead, Wirral, CH49 0TH",53.3847306,-3.0981445,Chicken 1;Mexican 1;,POINT (-3.0981445 53.3847306),peckwater,E08000015,Wirral,E08000015_10_0,E08000015_20_0,E08000015_30_0,E08000015_40_0
55,Mario Pizza,"55 Eltham Green, Woodchurch",Wirral,CH49 5NQ,01516 777700,"Mario Pizza, 55 Eltham Green, Woodchurch, Wirral, CH49 5NQ",53.3710841,-3.0893535,Chicken 2;,POINT (-3.0893535 53.3710841),peckwater,E08000015,Wirral,E08000015_10_44,E08000015_20_20,E08000015_30_16,E08000015_40_0
94,Piri Piri Kitchen,"Unit 3, 300 Cleveland Street",Birkenhead,CH41 4JN,+44 7980 855304,"Piri Piri Kitchen, Unit 3, 300 Cleveland Street, Birkenhead, CH41 4JN",53.39941469999999,-3.0325642,Chicken 2;Mexican 1;Chicken 1;,POINT (-3.0325642 53.39941469999999),peckwater,E08000015,Wirral,E08000015_10_38,E08000015_20_3,E08000015_30_3,E08000015_40_3
43,Mr Burger,"1-3 Woodford Avenue, Gants Hill",Ilford,IG2 6UF,020 34755594,"Mr Burger, 1-3 Woodford Avenue, Gants Hill, Ilford, IG2 6UF",51.576843,0.0658744,Chicken 1;Chicken 2;Mexican 1;,POINT (0.0658744 51.576843),peckwater,E09000026,Redbridge,E09000026_10_5,E09000026_20_5,E09000026_30_5,E09000026_40_4
93,Giants,13 Beehive Lane,Ilford,IG1 3RG,+44 792 772 2221,"Giants, 13 Beehive Lane, Ilford, IG1 3RG",51.5727693,0.0640386,Chicken 2;,POINT (0.0640386 51.5727693),peckwater,E09000026,Redbridge,E09000026_10_11,E09000026_20_11,E09000026_30_11,E09000026_40_8
44,Marlpool Diner,41 Willowfield Drive,Kidderminster,DY11 5HA,01562 68686,"Marlpool Diner, 41 Willowfield Drive, Kidderminster, DY11 5HA",52.4008542,-2.259644,Chicken 1;,POINT (-2.259644 52.4008542),peckwater,E07000239,Wyre Forest,E07000239_10_6,E07000239_20_5,E07000239_30_0,E07000239_40_0
46,Ramen,"31 The Market Place, Falloden Way, Finchley",London,NW11 6JY,020 89055866,"Ramen, 31 The Market Place, Falloden Way, Finchley, London, NW11 6JY",51.58596989999999,-0.1819092,Chicken 1;,POINT (-0.1819092 51.58596989999999),peckwater,E09000003,Barnet,E09000003_10_7,E09000003_20_6,E09000003_30_5,E09000003_40_3
102,Soor Lounge & Lebanese Kitchen,8 Watford Way,Hendon Central,NW4 3AD ,tel:07429227484,"Soor Lounge & Lebanese Kitchen, 8 Watford Way, Hendon Central, NW4 3AD ",51.5833902,-0.2272519,Mexican 1;,POINT (-0.2272519 51.5833902),peckwater,E09000003,Barnet,E09000003_10_21,E09000003_20_33,E09000003_30_20,E09000003_40_15
37,The Joiners,"51 Ballards Lane, Barnet",London,N3 1XP,,"The Joiners, 51 Ballards Lane, Barnet, London, N3 1XP",51.6032644,-0.1914815,Stonegate 2;,POINT (-0.1914815 51.6032644),peckwater,E09000003,Barnet,E09000003_10_65,E09000003_20_19,E09000003_30_17,E09000003_40_17
47,Ruby Jeans,"3-4 The Parade, Shirehampton",Bristol,BS11 9TS,01179 824811,"Ruby Jeans, 3-4 The Parade, Shirehampton, Bristol, BS11 9TS",51.4884314,-2.6744387,Chicken 1;,POINT (-2.6744387 51.4884314),peckwater,E06000023,"Bristol, City of",E06000023_10_100,E06000023_20_61,E06000023_30_51,E06000023_40_36
59,S & B Cafe,"S and B Cafe, Victoria Grove, Bedminster",Bristol,BS3 4AG,07904 207548,"S & B Cafe, S and B Cafe, Victoria Grove, Bedminster, Bristol, BS3 4AG",51.4441608,-2.5878353,Chicken 2;Mexican 1;,POINT (-2.5878353 51.4441608),peckwater,E06000023,"Bristol, City of",E06000023_10_72,E06000023_20_40,E06000023_30_39,E06000023_40_10
17,Old Post Office Bristol - STG,786 Fishponds Road Fishponds,Bristol,BS16 3TT,,"Old Post Office Bristol - STG, 786 Fishponds Road Fishponds, Bristol, BS16 3TT",51.48066859999999,-2.528585,Stonegate 2;,POINT (-2.528585 51.48066859999999),peckwater,E06000023,"Bristol, City of",E06000023_10_94,E06000023_20_44,E06000023_30_9,E06000023_40_9
32,Green House,37 College Green,Bristol,BS1 5SP,,"Green House, 37 College Green, Bristol, BS1 5SP",51.4525772,-2.5994055,Stonegate 2;,POINT (-2.5994055 51.4525772),peckwater,E06000023,"Bristol, City of",E06000023_10_34,E06000023_20_29,E06000023_30_26,E06000023_40_4
50,Zorba,"167-169 Whalley Road, Clayton Le Moors",Accrington,BB5 5HD,01254 393437,"Zorba, 167-169 Whalley Road, Clayton Le Moors, Accrington, BB5 5HD",53.7713408,-2.3814143,Chicken 1;,POINT (-2.3814143 53.7713408),peckwater,E07000120,Hyndburn,E07000120_10_10,E07000120_20_6,E07000120_30_5,E07000120_40_1
53,Jack's Cafe,"Lawrance Square Northfleet, Gravesend",Kent,DA11 7HW,,"Jack's Cafe, Lawrance Square Northfleet, Gravesend, Kent, DA11 7HW",51.4275578,0.3565366,Chicken 1;Mexican 1;,POINT (0.3565366 51.4275578),peckwater,E07000109,Gravesham,E07000109_10_22,E07000109_20_5,E07000109_30_3,E07000109_40_3
155,Munchies Peri Peri,71 New Road,Gravesend,DA11 0AE,1414837953,"Munchies Peri Peri, 71 New Road, Gravesend, DA11 0AE",51.4423541,0.3661441,Chicken 2;,POINT (0.3661441 51.4423541),peckwater,E07000109,Gravesham,E07000109_10_0,E07000109_20_0,E07000109_30_0,E07000109_40_0
56,Tony's Kitchen,27 Ratcliffe Gate,"Mansfield, Nottinghamshire",NG18 2JA,07858 565511,"Tony's Kitchen, 27 Ratcliffe Gate, Mansfield, Nottinghamshire, NG18 2JA",53.1433308,-1.1898444,Chicken 1;,POINT (-1.1898444 53.1433308),peckwater,E07000174,Mansfield,E07000174_10_2,E07000174_20_0,E07000174_30_0,E07000174_40_0
61,The Subcontinent,10 Victoria Street,Wolverhampton,WV1 3NP,07875 131169,"The Subcontinent, 10 Victoria Street, Wolverhampton, WV1 3NP",52.5849956,-2.1292753,Chicken 1;,POINT (-2.1292753 52.5849956),peckwater,E08000031,Wolverhampton,E08000031_10_11,E08000031_20_8,E08000031_30_0,E08000031_40_1
43,Hogshead Wolverhampton,186 Stafford Street,Wolverhampton,WV1 1NA,,"Hogshead Wolverhampton, 186 Stafford Street, Wolverhampton, WV1 1NA",52.5874346,-2.1258567,Stonegate 2;,POINT (-2.1258567 52.5874346),peckwater,E08000031,Wolverhampton,E08000031_10_1,E08000031_20_1,E08000031_30_1,E08000031_40_1
146,Kaydees - New Deal,122 Wolverhampton Road,Wolverhampton Road,WS2 8PR,7805094098,"Kaydees - New Deal, 122 Wolverhampton Road, Wolverhampton Road, WS2 8PR",52.597642,-2.0924467,Mexican 1;,POINT (-2.0924467 52.597642),peckwater,E08000031,Wolverhampton,E08000031_10_41,E08000031_20_6,E08000031_30_6,E08000031_40_6
38,The Lancaster Wolverhampton - STG,Lichfield Road,Wolverhampton,WV11 3EL,,"The Lancaster Wolverhampton - STG, Lichfield Road, Wolverhampton, WV11 3EL",52.6074713,-2.0640618,Stonegate 2;,POINT (-2.0640618 52.6074713),peckwater,E08000031,Wolverhampton,E08000031_10_4,E08000031_20_3,E08000031_30_3,E08000031_40_3
73,Tikka Nation - Dorking,41-43 High Street,Dorking,RH4 1AR,7944348878,"Tikka Nation - Dorking, 41-43 High Street, Dorking, RH4 1AR",51.2318471,-0.332391,Mexican 1;,POINT (-0.332391 51.2318471),peckwater,E07000210,Mole Valley,E07000210_10_1,E07000210_20_1,E07000210_30_1,E07000210_40_1
74,Chicks,101 Mitcham Road,London,SW17 9PD,7861794208,"Chicks, 101 Mitcham Road, London, SW17 9PD",51.4258491,-0.1649968,Chicken 1;,POINT (-0.1649968 51.4258491),peckwater,E09000032,Wandsworth,E09000032_10_75,E09000032_20_55,E09000032_30_43,E09000032_40_23
76,Burger Vault,Pod 5 Unit 16 School Street, Hazel Grove,SK7 4RA,447852745278,"Burger Vault, Pod 5 Unit 16 School Street,  Hazel Grove, SK7 4RA",53.3775522,-2.1178673,Chicken 1;,POINT (-2.1178673 53.3775522),peckwater,E08000007,Stockport,E08000007_10_18,E08000007_20_15,E08000007_30_9,E08000007_40_8
89,Chunky Fried Chicken,"61 Wood Street, ", Edgeley,SK30DH ,7459305912,"Chunky Fried Chicken, 61 Wood Street, ,  Edgeley, SK30DH ",53.4069136,-2.1673339,Chicken 1;Mexican 1;Chicken 2;,POINT (-2.1673339 53.4069136),peckwater,E08000007,Stockport,E08000007_10_3,E08000007_20_3,E08000007_30_3,E08000007_40_3
1,Kings Tap Cheadle Hulme - STG,11-13 Station Road,Greater Manchester,SK8 5AF,,"Kings Tap Cheadle Hulme - STG, 11-13 Station Road, Greater Manchester, SK8 5AF",53.3775144,-2.1894642,Stonegate 2;,POINT (-2.1894642 53.3775144),peckwater,E08000007,Stockport,E08000007_10_17,E08000007_20_7,E08000007_30_6,E08000007_40_6
77,Chico's Parmi ‘N’ Shakes ,"371 Dunstable Road, Maidenhall",Luton,LU4 8BY,f,"Chico's Parmi ‘N’ Shakes , 371 Dunstable Road, Maidenhall, Luton, LU4 8BY",51.88978969999999,-0.4417973,Chicken 1;,POINT (-0.4417973 51.88978969999999),peckwater,E06000032,Luton,E06000032_10_1,E06000032_20_1,E06000032_30_1,E06000032_40_1
115,The Fat Pizza - Luton,2 Addington Court,Addington Way,LU4 9FZ,01582 292075,"The Fat Pizza - Luton, 2 Addington Court, Addington Way, LU4 9FZ",51.8976142,-0.4639222,Chicken 2;,POINT (-0.4639222 51.8976142),peckwater,E06000032,Luton,E06000032_10_32,E06000032_20_18,E06000032_30_12,E06000032_40_3
44,Red Lion Luton - STG,2 Castle Street,Bedfordshire,LU1 3AA,,"Red Lion Luton - STG, 2 Castle Street, Bedfordshire, LU1 3AA",51.8767973,-0.414821,Stonegate 2;,POINT (-0.414821 51.8767973),peckwater,E06000032,Luton,E06000032_10_13,E06000032_20_20,E06000032_30_7,E06000032_40_6
79,The Castle,24 Paradise Street,Oxford,OX1 1LD,7825262870,"The Castle, 24 Paradise Street, Oxford, OX1 1LD",51.7506649,-1.2619361,Chicken 1;Mexican 1;,POINT (-1.2619361 51.7506649),peckwater,E07000178,Oxford,E07000178_10_6,E07000178_20_14,E07000178_30_2,E07000178_40_2
85,Monsoon Oxford,17a Beaumont Rd,"Headington, Oxford",OX3 8JN,447796962345,"Monsoon Oxford, 17a Beaumont Rd, Headington, Oxford, OX3 8JN",51.7594316,-1.196894,Chicken 2;,POINT (-1.196894 51.7594316),peckwater,E07000178,Oxford,E07000178_10_21,E07000178_20_16,E07000178_30_6,E07000178_40_6
152,Aryzay Peri Peri,26 West Way,Botley,OX2 9TJ,7747776677,"Aryzay Peri Peri, 26 West Way, Botley, OX2 9TJ",51.7534113,-1.2920405,Chicken 2;,POINT (-1.2920405 51.7534113),peckwater,E07000178,Oxford,E07000178_10_40,E07000178_20_24,E07000178_30_8,E07000178_40_13
80,Miami Pizza 2 ,16 West Percy Street,North Shields,NE29 0AG,0191 258 2130,"Miami Pizza 2 , 16 West Percy Street, North Shields, NE29 0AG",55.0098766,-1.4481883,Chicken 1;,POINT (-1.4481883 55.0098766),peckwater,E08000022,North Tyneside,E08000022_10_19,E08000022_20_8,E08000022_30_8,E08000022_40_5
97,Chefs Yard Fish & Chips,Unit 28 Tyneside Autoparc Sandy Lane,Newcastle,NE136PE,447585686972,"Chefs Yard Fish & Chips, Unit 28 Tyneside Autoparc Sandy Lane, Newcastle, NE136PE",55.0401389,-1.5971846,Chicken 1;,POINT (-1.5971846 55.0401389),peckwater,E08000022,North Tyneside,E08000022_10_26,E08000022_20_11,E08000022_30_13,E08000022_40_9
103,Hungry Shack (Wallsend),158 High Street East,Wallsend,NE28 7RP,0191 262 0222,"Hungry Shack (Wallsend), 158 High Street East, Wallsend, NE28 7RP",54.9917807,-1.5282039,Chicken 2;,POINT (-1.5282039 54.9917807),peckwater,E08000022,North Tyneside,E08000022_10_0,E08000022_20_0,E08000022_30_0,E08000022_40_0
84,Namaste Dining,53-57 London Road,Grantham,NG31 6ET,7825660594,"Namaste Dining, 53-57 London Road, Grantham, NG31 6ET",52.9082383,-0.6382276000000001,Chicken 1;,POINT (-0.6382276000000001 52.9082383),peckwater,E07000141,South Kesteven,E07000141_10_6,E07000141_20_7,E07000141_30_2,E07000141_40_2
31,The Old Bank Grantham - STG,55 High Street,Lincolnshire,NG31 6NE,,"The Old Bank Grantham - STG, 55 High Street, Lincolnshire, NG31 6NE",52.9118996,-0.6421835,Stonegate 2;,POINT (-0.6421835 52.9118996),peckwater,E07000141,South Kesteven,E07000141_10_0,E07000141_20_0,E07000141_30_0,E07000141_40_0
86,Tasty Corner ,243 Castle Blvd,Nottingham,NG7 1HA ,+44 7379 984456,"Tasty Corner , 243 Castle Blvd, Nottingham, NG7 1HA ",52.9466601,-1.1698465,Chicken 2;,POINT (-1.1698465 52.9466601),peckwater,E06000018,Nottingham,E06000018_10_25,E06000018_20_23,E06000018_30_18,E06000018_40_16
7,Horn In Hand,17 Goldsmith Street,Nottingham,NG1 5JT,0115 9503978,"Horn In Hand, 17 Goldsmith Street, Nottingham, NG1 5JT",52.95600349999999,-1.1528392,Chicken 1;Stonegate 2;,POINT (-1.1528392 52.95600349999999),peckwater,E06000018,Nottingham,E06000018_10_47,E06000018_20_20,E06000018_30_5,E06000018_40_7
44,Faradays Nottingham,23-27 Victoria Street & 44-48 Pelham Street,Nottingham,NG1 2EW,,"Faradays Nottingham, 23-27 Victoria Street & 44-48 Pelham Street, Nottingham, NG1 2EW",52.953501,-1.1464785,Stonegate 2;,POINT (-1.1464785 52.953501),peckwater,E06000018,Nottingham,E06000018_10_44,E06000018_20_33,E06000018_30_24,E06000018_40_8
88,Huckleberry (Bishop's S),3 Northgate End,Bishop's Stortford,CM23 2ET,7735897737,"Huckleberry (Bishop's S), 3 Northgate End, Bishop's Stortford, CM23 2ET",51.8731781,0.1584799,Chicken 1;,POINT (0.1584799 51.8731781),peckwater,E07000242,East Hertfordshire,E07000242_10_9,E07000242_20_5,E07000242_30_4,E07000242_40_3
90,Huckleberry (Ware),7 Amwell End,Ware,SG12 9HP,7735897737,"Huckleberry (Ware), 7 Amwell End, Ware, SG12 9HP",51.8092035,-0.0294252,Chicken 1;,POINT (-0.0294252 51.8092035),peckwater,E07000242,East Hertfordshire,E07000242_10_4,E07000242_20_3,E07000242_30_4,E07000242_40_1
92,Big Joes MK,61 Alston Dr,Milton Keynes,MK13 9HB,7703736216,"Big Joes MK, 61 Alston Dr, Milton Keynes, MK13 9HB",52.0455508,-0.7963579,Chicken 1;Mexican 1;,POINT (-0.7963579 52.0455508),peckwater,E06000042,Milton Keynes,E06000042_10_13,E06000042_20_10,E06000042_30_11,E06000042_40_5
133,Ash's Fish & Chicken Pizza,31 Singleton Drive,Milton Keynes,MK8 0PX,441908749288,"Ash's Fish & Chicken Pizza, 31 Singleton Drive, Milton Keynes, MK8 0PX",52.0218864,-0.8072516,Chicken 2;,POINT (-0.8072516 52.0218864),peckwater,E06000042,Milton Keynes,E06000042_10_27,E06000042_20_5,E06000042_30_5,E06000042_40_5
119,The Fat Pizza - Milton Keynes,2 Pimlico Court,Milton Keynes,MK10 9RH,01908 040275,"The Fat Pizza - Milton Keynes, 2 Pimlico Court, Milton Keynes, MK10 9RH",52.0342584,-0.7105421,Chicken 2;Mexican 1;,POINT (-0.7105421 52.0342584),peckwater,E06000042,Milton Keynes,E06000042_10_0,E06000042_20_0,E06000042_30_0,E06000042_40_0
95,The Fat Pizza - Bedford,36 Ampthill Road,Bedford,MK42 9HG,7415884298,"The Fat Pizza - Bedford, 36 Ampthill Road, Bedford, MK42 9HG",52.1268245,-0.4706981,Chicken 1;,POINT (-0.4706981 52.1268245),peckwater,E06000055,Bedford,E06000055_10_5,E06000055_20_5,E06000055_30_5,E06000055_40_3
30,The Rose,45 High Street,Bedford,MK40 1RY,,"The Rose, 45 High Street, Bedford, MK40 1RY",52.1360991,-0.4661704999999999,Stonegate 2;,POINT (-0.4661704999999999 52.1360991),peckwater,E06000055,Bedford,E06000055_10_10,E06000055_20_10,E06000055_30_6,E06000055_40_5
99,Huckleberry (Broxbourne),56 High Road,Broxbourne,EN10 7NF,7735897737,"Huckleberry (Broxbourne), 56 High Road, Broxbourne, EN10 7NF",51.74708469999999,-0.0196173,Chicken 1;,POINT (-0.0196173 51.74708469999999),peckwater,E07000095,Broxbourne,E07000095_10_11,E07000095_20_7,E07000095_30_6,E07000095_40_2
100,The Fish Bay - Wigan,218 Belle Green Lane,Ince-in-Makerfield,WN2 2ET,07830 010022,"The Fish Bay - Wigan, 218 Belle Green Lane, Ince-in-Makerfield, WN2 2ET",53.547418,-2.5964206,Chicken 1;,POINT (-2.5964206 53.547418),peckwater,E08000010,Wigan,E08000010_10_48,E08000010_20_8,E08000010_30_7,E08000010_40_6
101,The Fat Pizza - Southend,9 Carlton Court,Granger Road,SS2 5BZ,447718588960,"The Fat Pizza - Southend, 9 Carlton Court, Granger Road, SS2 5BZ",51.5439186,0.7133644,Chicken 1;Mexican 1;,POINT (0.7133644 51.5439186),peckwater,E06000033,Southend-on-Sea,E06000033_10_1,E06000033_20_1,E06000033_30_1,E06000033_40_1
29,The Alex,53 Alexandra Street,Westcliff-On-Sea,SS1 1BW,7706 018009,"The Alex, 53 Alexandra Street, Westcliff-On-Sea, SS1 1BW",51.53497710000001,0.7109489,Chicken 2;Stonegate 1;Stonegate 2;,POINT (0.7109489 51.53497710000001),peckwater,E06000033,Southend-on-Sea,E06000033_10_0,E06000033_20_0,E06000033_30_0,E06000033_40_0
107,Tandoori Nights,50 High Street,Poole,BH15 1BT,+44 7759 030962,"Tandoori Nights, 50 High Street, Poole, BH15 1BT",50.7140077,-1.9864075,Mexican 1;,POINT (-1.9864075 50.7140077),peckwater,E06000058,"Bournemouth, Christchurch and Poole [note 9]",E06000058_10_33,E06000058_20_26,E06000058_30_21,E06000058_40_20
108,CRUNCHY CHICKEN ,175 Manchester Rd,Mossley,OL5 9AB,4401457831100,"CRUNCHY CHICKEN , 175 Manchester Rd, Mossley, OL5 9AB",53.5141529,-2.0407108,Chicken 1;,POINT (-2.0407108 53.5141529),peckwater,E08000008,Tameside,E08000008_10_22,E08000008_20_15,E08000008_30_14,E08000008_40_11
162,Krunchy Fried Chicken - Audenshaw,270 Manchester Rd,Audenshaw,M34 5GJ,447849394382,"Krunchy Fried Chicken - Audenshaw, 270 Manchester Rd, Audenshaw, M34 5GJ",53.4779031,-2.1294817,Chicken 1;,POINT (-2.1294817 53.4779031),peckwater,E08000008,Tameside,E08000008_10_34,E08000008_20_8,E08000008_30_5,E08000008_40_5
109,Captains Cod Traditional Fish & Chips,31 Front Street,Consett,DH8 5AB,01207 504010,"Captains Cod Traditional Fish & Chips, 31 Front Street, Consett, DH8 5AB",54.8512242,-1.8325722,Chicken 1;,POINT (-1.8325722 54.8512242),peckwater,E06000047,County Durham,E06000047_10_16,E06000047_20_13,E06000047_30_8,E06000047_40_7
12,The Library,46 Saddler Street,Durham,DH1 3NU,0191 3846704,"The Library, 46 Saddler Street, Durham, DH1 3NU",54.7756266,-1.5743459,Chicken 1;Stonegate 2;,POINT (-1.5743459 54.7756266),peckwater,E06000047,County Durham,E06000047_10_2,E06000047_20_0,E06000047_30_0,E06000047_40_0
49,Whitehills Chester Le Street - STG,Waldridge Road,Chester le Street,DH2 3AB,,"Whitehills Chester Le Street - STG, Waldridge Road, Chester le Street, DH2 3AB",54.8498565,-1.5894119,Stonegate 2;,POINT (-1.5894119 54.8498565),peckwater,E06000047,County Durham,E06000047_10_53,E06000047_20_3,E06000047_30_3,E06000047_40_3
112,Chef Express,8 High Oaks,St Albans,AL3 6DL ,7508802845,"Chef Express, 8 High Oaks, St Albans, AL3 6DL ",51.770039,-0.3391099,Chicken 1;,POINT (-0.3391099 51.770039),peckwater,E07000240,St Albans,E07000240_10_7,E07000240_20_2,E07000240_30_2,E07000240_40_2
114,Queen's Diner,"Queens, Winterwell Rd",Wath upon Dearne,S63 6DP ,7834778092,"Queen's Diner, Queens, Winterwell Rd, Wath upon Dearne, S63 6DP ",53.5060107,-1.359074,Chicken 1;,POINT (-1.359074 53.5060107),peckwater,E08000018,Rotherham,E08000018_10_29,E08000018_20_10,E08000018_30_13,E08000018_40_1
124,Holycow burger co,Unit 13 Onyx Retail Park Harris Hawk Way,Wath-Upon-Dearne,S63 7FN,7870567444,"Holycow burger co, Unit 13 Onyx Retail Park Harris Hawk Way, Wath-Upon-Dearne, S63 7FN",53.51040889999999,-1.3568411,Mexican 1;,POINT (-1.3568411 53.51040889999999),peckwater,E08000018,Rotherham,E08000018_10_1,E08000018_20_1,E08000018_30_1,E08000018_40_1
117,Seafare,206 London Road,Guildford,GU4 7JS,441483534253,"Seafare, 206 London Road, Guildford, GU4 7JS",51.25765579999999,-0.5458510999999999,Chicken 1;,POINT (-0.5458510999999999 51.25765579999999),peckwater,E07000209,Guildford,E07000209_10_17,E07000209_20_10,E07000209_30_10,E07000209_40_4
120,Saffron Indian,61 Poole Road,West Ewell,Kt199sq,+44 1254 694411,"Saffron Indian, 61 Poole Road, West Ewell, Kt199sq",51.3596283,-0.2708127,Chicken 2;,POINT (-0.2708127 51.3596283),peckwater,E07000208,Epsom and Ewell,E07000208_10_18,E07000208_20_13,E07000208_30_0,E07000208_40_0
143,Miniature Bar & Grill,11-13 Upper High St,Epsom,KT17 4QY,7990511578,"Miniature Bar & Grill, 11-13 Upper High St, Epsom, KT17 4QY",51.3342601,-0.2630706,Mexican 1;,POINT (-0.2630706 51.3342601),peckwater,E07000208,Epsom and Ewell,E07000208_10_10,E07000208_20_2,E07000208_30_2,E07000208_40_2
13,The Faraday,2 Church Street,Epsom,KT17 4NY,01372 817750,"The Faraday, 2 Church Street, Epsom, KT17 4NY",51.3337562,-0.2640615,Chicken 1;Stonegate 2;,POINT (-0.2640615 51.3337562),peckwater,E07000208,Epsom and Ewell,E07000208_10_10,E07000208_20_3,E07000208_30_3,E07000208_40_3
123,Hart Peri Peri,192 - 196 Fleet Road,Fleet,GU51 4BY,7588526657,"Hart Peri Peri, 192 - 196 Fleet Road, Fleet, GU51 4BY",51.2802921,-0.8435431999999999,Chicken 1;,POINT (-0.8435431999999999 51.2802921),peckwater,E07000089,Hart,E07000089_10_1,E07000089_20_1,E07000089_30_0,E07000089_40_0
132,Pizza Time ,49 Elwick Road,Hartlepool,TS26 9AE,7442220711,"Pizza Time , 49 Elwick Road, Hartlepool, TS26 9AE",54.6794964,-1.2176635,Chicken 1;,POINT (-1.2176635 54.6794964),peckwater,E06000001,Hartlepool,E06000001_10_10,E06000001_20_4,E06000001_30_5,E06000001_40_3
136,Andover Tandoori,1 Atholl Court,Kingsway Gardens,SP10 4BB,7966662426,"Andover Tandoori, 1 Atholl Court, Kingsway Gardens, SP10 4BB",51.22221039999999,-1.4803127,Mexican 1;,POINT (-1.4803127 51.22221039999999),peckwater,E07000093,Test Valley,E07000093_10_2,E07000093_20_1,E07000093_30_1,E07000093_40_1
137,Hylton Fry Inn,213 Hylton Road,Sunderland,SR4 7XA,0191 743 0328,"Hylton Fry Inn, 213 Hylton Road, Sunderland, SR4 7XA",54.9052667,-1.4077717,Chicken 1;,POINT (-1.4077717 54.9052667),peckwater,E08000024,Sunderland,E08000024_10_10,E08000024_20_13,E08000024_30_4,E08000024_40_4
13,Washington Arms Washington - STG,The Green,Washington,NE38 7AB,,"Washington Arms Washington - STG, The Green, Washington, NE38 7AB",54.9036102,-1.5176358,Stonegate 2;,POINT (-1.5176358 54.9036102),peckwater,E08000024,Sunderland,E08000024_10_24,E08000024_20_7,E08000024_30_0,E08000024_40_0
51,Board Inn Sunderland - STG,Durham Road,Sunderland,SR3 3NS,,"Board Inn Sunderland - STG, Durham Road, Sunderland, SR3 3NS",54.8726587,-1.4407813,Stonegate 2;,POINT (-1.4407813 54.8726587),peckwater,E08000024,Sunderland,E08000024_10_55,E08000024_20_20,E08000024_30_11,E08000024_40_7
138,The Hunger Flames,115A New Bridge St,Newcastle,NE1 2SW,0191 435 4527,"The Hunger Flames, 115A New Bridge St, Newcastle, NE1 2SW",54.9745581,-1.6015345,Chicken 1;,POINT (-1.6015345 54.9745581),peckwater,E08000021,Newcastle upon Tyne,E08000021_10_19,E08000021_20_15,E08000021_30_23,E08000021_40_10
139,Royal Kebabs,29 East Gate,Harlow ,CM20 1HP,4401279291305,"Royal Kebabs, 29 East Gate, Harlow , CM20 1HP",51.770901,0.0943344,Mexican 1;,POINT (0.0943344 51.770901),peckwater,E07000073,Harlow,E07000073_10_6,E07000073_20_0,E07000073_30_0,E07000073_40_0
141,Immys Grill , 2 Woodsend Rd,Flixton,M41 8QT,447701098786,"Immys Grill ,  2 Woodsend Rd, Flixton, M41 8QT",53.4482519,-2.3913583,Mexican 1;,POINT (-2.3913583 53.4482519),peckwater,E08000009,Trafford,E08000009_10_43,E08000009_20_24,E08000009_30_21,E08000009_40_14
11,Buck Inn Sale - STG,59 Green Lane,Sale,M33 5PN,,"Buck Inn Sale - STG, 59 Green Lane, Sale, M33 5PN",53.4296867,-2.342379,Stonegate 2;,POINT (-2.342379 53.4296867),peckwater,E08000009,Trafford,E08000009_10_25,E08000009_20_18,E08000009_30_16,E08000009_40_6
142,The Elephant,101 Station Road,Sidcup,DA15 7AX,+44 20 8302 2105,"The Elephant, 101 Station Road, Sidcup, DA15 7AX",51.4332392,0.1024516,Chicken 1;,POINT (0.1024516 51.4332392),peckwater,E09000004,Bexley,E09000004_10_40,E09000004_20_16,E09000004_30_14,E09000004_40_9
28,Hill Top Tap,7-8 Elm Parade,Main Road,DA14 6NF,07706 018009,"Hill Top Tap, 7-8 Elm Parade, Main Road, DA14 6NF",51.4263012,0.1006594,Chicken 2;Stonegate 1;Stonegate 2;,POINT (0.1006594 51.4263012),peckwater,E09000004,Bexley,E09000004_10_26,E09000004_20_29,E09000004_30_12,E09000004_40_9
147,Kings Dinner,80 High St,Gosport,PO12 1DS,7423135363,"Kings Dinner, 80 High St, Gosport, PO12 1DS",50.7947996,-1.1186139,Mexican 1;Chicken 1;,POINT (-1.1186139 50.7947996),peckwater,E07000088,Gosport,E07000088_10_6,E07000088_20_2,E07000088_30_1,E07000088_40_1
157,Crooked Skewer,1 Guild St, Burton-on-Trent,DE14 1NA,1283904920,"Crooked Skewer, 1 Guild St,  Burton-on-Trent, DE14 1NA",52.804376,-1.6343367,Mexican 1;,POINT (-1.6343367 52.804376),peckwater,E07000193,East Staffordshire,E07000193_10_6,E07000193_20_0,E07000193_30_0,E07000193_40_0
42,Anglesey Arms Burton On Trent - STG,"The Green, Burton",Staffordshire,DE13 0EQ,,"Anglesey Arms Burton On Trent - STG, The Green, Burton, Staffordshire, DE13 0EQ",52.8336891,-1.6268848,Stonegate 2;,POINT (-1.6268848 52.8336891),peckwater,E07000193,East Staffordshire,E07000193_10_14,E07000193_20_10,E07000193_30_6,E07000193_40_2
6,Addison Arms Bootle - STG,Podium Level Units 1 - 3 Triad Bldg,Bootle,L20 3LT,,"Addison Arms Bootle - STG, Podium Level Units 1 - 3 Triad Bldg, Bootle, L20 3LT",53.4527829,-2.991102,Stonegate 2;,POINT (-2.991102 53.4527829),peckwater,E08000014,Sefton,E08000014_10_1,E08000014_20_1,E08000014_30_1,E08000014_40_1
10,Grapes Hotel Formby - STG,Green Lane ,Formby,L37 7DL,,"Grapes Hotel Formby - STG, Green Lane , Formby, L37 7DL",53.5667238,-3.060163,Stonegate 2;,POINT (-3.060163 53.5667238),peckwater,E08000014,Sefton,E08000014_10_16,E08000014_20_11,E08000014_30_10,E08000014_40_10
8,Brookhouse Liverpool - STG,467 Smithdown Road,Liverpool,L15 5AE,,"Brookhouse Liverpool - STG, 467 Smithdown Road, Liverpool, L15 5AE",53.389939,-2.927451,Stonegate 2;,POINT (-2.927451 53.389939),peckwater,E08000012,Liverpool,E08000012_10_5,E08000012_20_0,E08000012_30_0,E08000012_40_0
9,Pendle Witch Lancaster - STG,90-92 Penny Street,Lancaster,LA1 1XN,,"Pendle Witch Lancaster - STG, 90-92 Penny Street, Lancaster, LA1 1XN",54.0461609,-2.8001456,Stonegate 2;,POINT (-2.8001456 54.0461609),peckwater,E07000121,Lancaster,E07000121_10_7,E07000121_20_2,E07000121_30_2,E07000121_40_2
14,Yates Halifax - STG,19-21 Silver Street,West Yorkshire,HX1 1HS,,"Yates Halifax - STG, 19-21 Silver Street, West Yorkshire, HX1 1HS",53.7227074,-1.8625308,Stonegate 2;,POINT (-1.8625308 53.7227074),peckwater,E08000033,Calderdale,E08000033_10_8,E08000033_20_5,E08000033_30_4,E08000033_40_2
55,Calder Brighouse - STG,8 Huddersfield Road,Brighouse,HD6 1JZ,,"Calder Brighouse - STG, 8 Huddersfield Road, Brighouse, HD6 1JZ",53.7008684,-1.7791516,Stonegate 2;,POINT (-1.7791516 53.7008684),peckwater,E08000033,Calderdale,E08000033_10_12,E08000033_20_7,E08000033_30_6,E08000033_40_7
15,Yates Doncaster - STG,58 -59 Hall Gate,South Yorkshire,DN1 3PB,,"Yates Doncaster - STG, 58 -59 Hall Gate, South Yorkshire, DN1 3PB",53.522438,-1.131483,Stonegate 2;,POINT (-1.131483 53.522438),peckwater,E08000017,Doncaster,E08000017_10_12,E08000017_20_2,E08000017_30_2,E08000017_40_2
26,The Hatfield Chace Doncaster - STG,Doncaster Road Hatfield,South Yorkshire,DN7 6AD,,"The Hatfield Chace Doncaster - STG, Doncaster Road Hatfield, South Yorkshire, DN7 6AD",53.5708536,-1.0096113,Stonegate 2;,POINT (-1.0096113 53.5708536),peckwater,E08000017,Doncaster,E08000017_10_24,E08000017_20_17,E08000017_30_10,E08000017_40_9
16,The Imperial Inn Hereford - STG,31 Widemarsh Street,Herefordshire,HR4 9EA,,"The Imperial Inn Hereford - STG, 31 Widemarsh Street, Herefordshire, HR4 9EA",52.05772529999999,-2.7164008,Stonegate 2;,POINT (-2.7164008 52.05772529999999),peckwater,E06000019,"Herefordshire, County of",E06000019_10_6,E06000019_20_2,E06000019_30_1,E06000019_40_1
18,The Registry Walsall - STG,23 - 29 Leicester Street,West Midlands,WS1 1PT,,"The Registry Walsall - STG, 23 - 29 Leicester Street, West Midlands, WS1 1PT",52.585268,-1.9809429,Stonegate 2;,POINT (-1.9809429 52.585268),peckwater,E08000030,Walsall,E08000030_10_10,E08000030_20_6,E08000030_30_6,E08000030_40_1
19,The Cricketers Taunton - STG,15 High Street,Somerset,TA1 3PJ,,"The Cricketers Taunton - STG, 15 High Street, Somerset, TA1 3PJ",51.0132013,-3.1031139,Stonegate 2;,POINT (-3.1031139 51.0132013),peckwater,E07000246,Somerset West and Taunton [note 11],E07000246_10_6,E07000246_20_5,E07000246_30_2,E07000246_40_1
20,The Penny Black Tamworth - STG,2 Lower Gungate,Staffordshire,B79 7AL,,"The Penny Black Tamworth - STG, 2 Lower Gungate, Staffordshire, B79 7AL",52.6343111,-1.6924981,Stonegate 2;,POINT (-1.6924981 52.6343111),peckwater,E07000199,Tamworth,E07000199_10_5,E07000199_20_1,E07000199_30_0,E07000199_40_0
23,Cutting Room Melton Mowbray - STG,2 Melton Mowbray Street,Melton Mowbray,LE13 1YE,,"Cutting Room Melton Mowbray - STG, 2 Melton Mowbray Street, Melton Mowbray, LE13 1YE",52.765491,-0.8859117999999999,Stonegate 2;,POINT (-0.8859117999999999 52.765491),peckwater,E07000133,Melton,E07000133_10_1,E07000133_20_1,E07000133_30_0,E07000133_40_0
24,Admiral Rodney Southwell - STG,9 King Street,Nottinghamshire,NG25 0EH,,"Admiral Rodney Southwell - STG, 9 King Street, Nottinghamshire, NG25 0EH",53.0785407,-0.9548492,Stonegate 2;,POINT (-0.9548492 53.0785407),peckwater,E07000175,Newark and Sherwood,E07000175_10_8,E07000175_20_1,E07000175_30_1,E07000175_40_1
25,Old Post Office Newark - STG,34 Kirk Gate,Newark,NG24 1AB,,"Old Post Office Newark - STG, 34 Kirk Gate, Newark, NG24 1AB",53.0772644,-0.8094658,Stonegate 2;,POINT (-0.8094658 53.0772644),peckwater,E07000175,Newark and Sherwood,E07000175_10_0,E07000175_20_0,E07000175_30_0,E07000175_40_0
29,Marquis Of Granby Hessle - STG,9 The Square,East Riding of Yorkshire,HU13 0AD,,"Marquis Of Granby Hessle - STG, 9 The Square, East Riding of Yorkshire, HU13 0AD",53.7234667,-0.4356786,Stonegate 2;,POINT (-0.4356786 53.7234667),peckwater,E06000011,East Riding of Yorkshire,E06000011_10_4,E06000011_20_4,E06000011_30_3,E06000011_40_3
30,The Picture House Leighton Buzzard - STG,8 Lake Street,Bedfordshire,LU7 1RT,,"The Picture House Leighton Buzzard - STG, 8 Lake Street, Bedfordshire, LU7 1RT",51.9158754,-0.6604646,Stonegate 2;,POINT (-0.6604646 51.9158754),peckwater,E06000056,Central Bedfordshire,E06000056_10_5,E06000056_20_5,E06000056_30_2,E06000056_40_2
32,Cross Keys Arnold - STG,74 Front Street Arnold,Arnold,NG5 7EJ,,"Cross Keys Arnold - STG, 74 Front Street Arnold, Arnold, NG5 7EJ",53.0033824,-1.1274679,Stonegate 2;,POINT (-1.1274679 53.0033824),peckwater,E07000173,Gedling,E07000173_10_3,E07000173_20_0,E07000173_30_0,E07000173_40_0
33,Willow Tree Nottingham - STG,Rufford Way West Bridgford,Nottinghamshire,NG2 6LS,,"Willow Tree Nottingham - STG, Rufford Way West Bridgford, Nottinghamshire, NG2 6LS",52.9251222,-1.1113219,Stonegate 2;,POINT (-1.1113219 52.9251222),peckwater,E07000176,Rushcliffe,E07000176_10_8,E07000176_20_3,E07000176_30_0,E07000176_40_0
34,Farthings Birmingham - STG,Green Lane,Birmingham,B36 0AY,,"Farthings Birmingham - STG, Green Lane, Birmingham, B36 0AY",52.506921,-1.7678572,Stonegate 2;,POINT (-1.7678572 52.506921),peckwater,E08000029,Solihull,E08000029_10_20,E08000029_20_12,E08000029_30_9,E08000029_40_9
35,The Silk Mill Nuneaton - STG,42 Newdegate Street,Warwickshire,CV11 4EU,,"The Silk Mill Nuneaton - STG, 42 Newdegate Street, Warwickshire, CV11 4EU",52.5237206,-1.4660185,Stonegate 2;,POINT (-1.4660185 52.5237206),peckwater,E07000219,Nuneaton and Bedworth,E07000219_10_1,E07000219_20_1,E07000219_30_1,E07000219_40_1
36,Old Post Office Stevenage - STG,"Unit 2, The Plaza The Town Square",Hertfordshire,SG1 1PF,,"Old Post Office Stevenage - STG, Unit 2, The Plaza The Town Square, Hertfordshire, SG1 1PF",51.90173859999999,-0.2023365,Stonegate 2;,POINT (-0.2023365 51.90173859999999),peckwater,E07000243,Stevenage,E07000243_10_1,E07000243_20_1,E07000243_30_1,E07000243_40_1
37,Canute Gainsborough - STG,12-14 Silver Street,Lincolnshire,DN21 2DP,,"Canute Gainsborough - STG, 12-14 Silver Street, Lincolnshire, DN21 2DP",53.3989053,-0.7769117999999999,Stonegate 2;,POINT (-0.7769117999999999 53.3989053),peckwater,E07000142,West Lindsey,E07000142_10_0,E07000142_20_0,E07000142_30_0,E07000142_40_0
39,The Lamb Inn Bicester - STG,59-61 Sheep Street,Bicester,OX26 6LG,,"The Lamb Inn Bicester - STG, 59-61 Sheep Street, Bicester, OX26 6LG",51.8990415,-1.1524581,Stonegate 2;,POINT (-1.1524581 51.8990415),peckwater,E07000177,Cherwell,E07000177_10_3,E07000177_20_2,E07000177_30_2,E07000177_40_2
40,Hereward Ely - STG,45 Market Street ,Ely,CB7 4LZ,,"Hereward Ely - STG, 45 Market Street , Ely, CB7 4LZ",52.4001,0.2636524,Stonegate 2;,POINT (0.2636524 52.4001),peckwater,E07000009,East Cambridgeshire,E07000009_10_0,E07000009_20_0,E07000009_30_0,E07000009_40_0
41,The Burlington Chesterfield - STG,29 - 31 Burlington Street,Derbyshire,S40 1RS,,"The Burlington Chesterfield - STG, 29 - 31 Burlington Street, Derbyshire, S40 1RS",53.2357998,-1.4257842,Stonegate 2;,POINT (-1.4257842 53.2357998),peckwater,E07000034,Chesterfield,E07000034_10_8,E07000034_20_3,E07000034_30_3,E07000034_40_2
43,The Yard Stafford - STG,Unit B Espleys Yard Stafford Riverside Newport Road,Staffordshire,ST16 2EZ,,"The Yard Stafford - STG, Unit B Espleys Yard Stafford Riverside Newport Road, Staffordshire, ST16 2EZ",52.8051198,-2.1128026,Stonegate 2;,POINT (-2.1128026 52.8051198),peckwater,E07000197,Stafford,E07000197_10_6,E07000197_20_1,E07000197_30_1,E07000197_40_1
6,The Southfield,18 Southfield Road,Middlesbrough,TS1 3BZ,01642 210414,"The Southfield, 18 Southfield Road, Middlesbrough, TS1 3BZ",54.5707943,-1.2340856,Stonegate 1;Chicken 1;Stonegate 2;,POINT (-1.2340856 54.5707943),peckwater,E06000002,Middlesbrough,E06000002_10_14,E06000002_20_1,E06000002_30_1,E06000002_40_0
9,The Bedford,23 Bedford Place,Southampton,SO15 2DB,02380 333705,"The Bedford, 23 Bedford Place, Southampton, SO15 2DB",50.9122194,-1.4060927,Stonegate 1;Chicken 1;Stonegate 2;,POINT (-1.4060927 50.9122194),peckwater,E06000045,Southampton,E06000045_10_27,E06000045_20_1,E06000045_30_1,E06000045_40_1
10,The Miller,12-14 Bath Road,Cheltenham,GL53 7HA,1242 500227,"The Miller, 12-14 Bath Road, Cheltenham, GL53 7HA",51.8978354,-2.0720084,Chicken 1;Stonegate 2;,POINT (-2.0720084 51.8978354),peckwater,E07000078,Cheltenham,E07000078_10_3,E07000078_20_2,E07000078_30_2,E07000078_40_2
14,Clarendon,44-46 Clarendon Avenue,Leamington Spa,CV32 4RZ,01926 355626,"Clarendon, 44-46 Clarendon Avenue, Leamington Spa, CV32 4RZ",52.2935943,-1.533505,Chicken 1;Stonegate 2;,POINT (-1.533505 52.2935943),peckwater,E07000222,Warwick,E07000222_10_10,E07000222_20_8,E07000222_30_0,E07000222_40_0
16,The Mailbox,19-20 Guildhall Street,Lincoln,LN1 1TR,01522 544938,"The Mailbox, 19-20 Guildhall Street, Lincoln, LN1 1TR",53.229449,-0.5416802,Chicken 1;Stonegate 2;,POINT (-0.5416802 53.229449),peckwater,E07000138,Lincoln,E07000138_10_6,E07000138_20_3,E07000138_30_2,E07000138_40_2
17,Phantom,2 Leicester Road,Loughborough,LE11 2AG,01509 234194,"Phantom, 2 Leicester Road, Loughborough, LE11 2AG",52.7706732,-1.2040351,Chicken 1;Stonegate 2;,POINT (-1.2040351 52.7706732),peckwater,E07000130,Charnwood,E07000130_10_10,E07000130_20_7,E07000130_30_3,E07000130_40_1
18,Roundabout,2-4 Drake Circus,Plymouth,PL4 8AQ,01752 825090,"Roundabout, 2-4 Drake Circus, Plymouth, PL4 8AQ",50.3735365,-4.1380793,Chicken 1;Stonegate 2;,POINT (-4.1380793 50.3735365),peckwater,E06000026,Plymouth,E06000026_10_31,E06000026_20_10,E06000026_30_9,E06000026_40_2
20,College Arms,18 Store Street,London,WC1E 7DH,7706 018009,"College Arms, 18 Store Street, London, WC1E 7DH",51.5198715,-0.1318213,Chicken 2;Stonegate 1;,POINT (-0.1318213 51.5198715),peckwater,E09000007,Camden,E09000007_10_79,E09000007_20_50,E09000007_30_23,E09000007_40_22
35,Priory Tavern Kilburn,250 Belsize Road ,London,NW6 4BT,,"Priory Tavern Kilburn, 250 Belsize Road , London, NW6 4BT",51.5384077,-0.1913131,Stonegate 2;,POINT (-0.1913131 51.5384077),peckwater,E09000007,Camden,E09000007_10_47,E09000007_20_35,E09000007_30_34,E09000007_40_27
24,The Two Willows,9 Howardsgate,Welwyn Garden City,AL8 6AW,7706 018009,"The Two Willows, 9 Howardsgate, Welwyn Garden City, AL8 6AW",51.8022826,-0.2075396,Chicken 2;Stonegate 1;Stonegate 2;,POINT (-0.2075396 51.8022826),peckwater,E07000241,Welwyn Hatfield,E07000241_10_2,E07000241_20_2,E07000241_30_2,E07000241_40_2
27,The Bay & Bracket,17-19 Artillery Row,London,SW1P 1RH,7706 018009,"The Bay & Bracket, 17-19 Artillery Row, London, SW1P 1RH",51.4966948,-0.1354564,Chicken 2;Stonegate 1;Stonegate 2;,POINT (-0.1354564 51.4966948),peckwater,E09000033,Westminster,E09000033_10_165,E09000033_20_18,E09000033_30_18,E09000033_40_17
33,The Junction Tap ,43-47 Chertsey Road,Woking,GU21 5AJ,,"The Junction Tap , 43-47 Chertsey Road, Woking, GU21 5AJ",51.3202629,-0.5556333,Stonegate 2;,POINT (-0.5556333 51.3202629),peckwater,E07000217,Woking,E07000217_10_4,E07000217_20_0,E07000217_30_0,E07000217_40_0
34,Duke Of Somerset,15 Little Somerset Street,London,E1 8AH,,"Duke Of Somerset, 15 Little Somerset Street, London, E1 8AH",51.5136123,-0.0738358,Stonegate 2;,POINT (-0.0738358 51.5136123),peckwater,E09000001,City of London,E09000001_10_31,E09000001_20_23,E09000001_30_10,E09000001_40_10
36,The Block and Gasket Burgess Hill,23 Church Road,Burgess Hill,RH15 9BB,,"The Block and Gasket Burgess Hill, 23 Church Road, Burgess Hill, RH15 9BB",50.9551072,-0.130021,Stonegate 2;,POINT (-0.130021 50.9551072),peckwater,E07000228,Mid Sussex,E07000228_10_8,E07000228_20_2,E07000228_30_2,E07000228_40_2
42,Warehouse Huddersfield,12 Zetland Street,Huddersfield,HD1 2RA,,"Warehouse Huddersfield, 12 Zetland Street, Huddersfield, HD1 2RA",53.6449969,-1.7794229,Stonegate 2;,POINT (-1.7794229 53.6449969),peckwater,E08000034,Kirklees,E08000034_10_8,E08000034_20_7,E08000034_30_5,E08000034_40_5
50,Bridle Path Whickham - STG,101 Front Street ,Whickham,NE16 4JJ,,"Bridle Path Whickham - STG, 101 Front Street , Whickham, NE16 4JJ",54.945747,-1.6819312,Stonegate 2;,POINT (-1.6819312 54.945747),peckwater,E08000037,Gateshead,E08000037_10_21,E08000037_20_10,E08000037_30_6,E08000037_40_1
